{
"type": "FeatureCollection",
"name": "provinces",
"crs": { "type": "name", "properties": { "name": "urn:ogc:def:crs:OGC:1.3:CRS84" } },
"xy_coordinate_resolution": 0.001,
"features": [
{ "type": "Feature", "properties": { "nis": "10000" }, "geometry": { "type": "MultiPolygon", "coordinates": [ [ [ [ 4.349, 51.019 ], [ 4.342, 51.017 ], [ 4.349, 51.025 ], [ 4.347, 51.027 ], [ 4.323, 51.027 ], [ 4.309, 51.036 ], [ 4.283, 51.04 ], [ 4.281, 51.043 ], [ 4.269, 51.042 ], [ 4.266, 51.038 ], [ 4.25, 51.034 ], [ 4.241, 51.037 ], [ 4.239, 51.041 ], [ 4.233, 51.043 ], [ 4.213, 51.032 ], [ 4.196, 51.04 ], [ 4.19, 51.04 ], [ 4.187, 51.047 ], [ 4.199, 51.056 ], [ 4.187, 51.06 ], [ 4.189, 51.081 ], [ 4.174, 51.089 ], [ 4.172, 51.093 ], [ 4.176, 51.102 ], [ 4.191, 51.107 ], [ 4.213, 51.122 ], [ 4.243, 51.115 ], [ 4.253, 51.116 ], [ 4.277, 51.123 ], [ 4.308, 51.125 ], [ 4.325, 51.134 ], [ 4.33, 51.156 ], [ 4.328, 51.176 ], [ 4.33, 51.186 ], [ 4.341, 51.197 ], [ 4.357, 51.202 ], [ 4.345, 51.216 ], [ 4.349, 51.218 ], [ 4.341, 51.23 ], [ 4.338, 51.23 ], [ 4.352, 51.24 ], [ 4.331, 51.25 ], [ 4.302, 51.258 ], [ 4.301, 51.262 ], [ 4.317, 51.278 ], [ 4.319, 51.286 ], [ 4.308, 51.293 ], [ 4.281, 51.302 ], [ 4.276, 51.31 ], [ 4.271, 51.332 ], [ 4.262, 51.341 ], [ 4.242, 51.354 ], [ 4.227, 51.36 ], [ 4.218, 51.374 ], [ 4.335, 51.378 ], [ 4.341, 51.358 ], [ 4.385, 51.354 ], [ 4.422, 51.365 ], [ 4.431, 51.364 ], [ 4.425, 51.371 ], [ 4.432, 51.375 ], [ 4.392, 51.408 ], [ 4.384, 51.421 ], [ 4.391, 51.424 ], [ 4.391, 51.427 ], [ 4.395, 51.427 ], [ 4.393, 51.433 ], [ 4.397, 51.432 ], [ 4.399, 51.435 ], [ 4.395, 51.436 ], [ 4.397, 51.441 ], [ 4.392, 51.446 ], [ 4.379, 51.447 ], [ 4.383, 51.45 ], [ 4.443, 51.469 ], [ 4.465, 51.471 ], [ 4.477, 51.478 ], [ 4.538, 51.482 ], [ 4.548, 51.473 ], [ 4.53, 51.45 ], [ 4.535, 51.423 ], [ 4.575, 51.433 ], [ 4.63, 51.426 ], [ 4.641, 51.422 ], [ 4.651, 51.427 ], [ 4.67, 51.426 ], [ 4.667, 51.444 ], [ 4.693, 51.452 ], [ 4.703, 51.467 ], [ 4.717, 51.469 ], [ 4.716, 51.471 ], [ 4.729, 51.484 ], [ 4.747, 51.49 ], [ 4.753, 51.5 ], [ 4.774, 51.505 ], [ 4.781, 51.504 ], [ 4.783, 51.5 ], [ 4.798, 51.5 ], [ 4.816, 51.495 ], [ 4.821, 51.483 ], [ 4.842, 51.481 ], [ 4.836, 51.461 ], [ 4.844, 51.459 ], [ 4.838, 51.456 ], [ 4.835, 51.459 ], [ 4.823, 51.449 ], [ 4.828, 51.422 ], [ 4.826, 51.423 ], [ 4.806, 51.429 ], [ 4.793, 51.429 ], [ 4.787, 51.433 ], [ 4.767, 51.43 ], [ 4.77, 51.427 ], [ 4.769, 51.42 ], [ 4.771, 51.415 ], [ 4.789, 51.409 ], [ 4.839, 51.415 ], [ 4.86, 51.413 ], [ 4.86, 51.411 ], [ 4.867, 51.409 ], [ 4.866, 51.411 ], [ 4.868, 51.413 ], [ 4.869, 51.413 ], [ 4.883, 51.416 ], [ 4.897, 51.412 ], [ 4.9, 51.415 ], [ 4.903, 51.414 ], [ 4.9, 51.411 ], [ 4.904, 51.412 ], [ 4.904, 51.41 ], [ 4.91, 51.407 ], [ 4.91, 51.402 ], [ 4.924, 51.398 ], [ 4.914, 51.395 ], [ 4.921, 51.394 ], [ 4.928, 51.395 ], [ 4.924, 51.399 ], [ 4.928, 51.4 ], [ 4.929, 51.396 ], [ 4.963, 51.422 ], [ 5.005, 51.444 ], [ 5.005, 51.451 ], [ 5.011, 51.456 ], [ 5.007, 51.464 ], [ 5.011, 51.472 ], [ 5.022, 51.482 ], [ 5.033, 51.487 ], [ 5.039, 51.487 ], [ 5.038, 51.479 ], [ 5.046, 51.471 ], [ 5.079, 51.471 ], [ 5.105, 51.431 ], [ 5.071, 51.393 ], [ 5.117, 51.361 ], [ 5.119, 51.356 ], [ 5.132, 51.347 ], [ 5.134, 51.315 ], [ 5.163, 51.31 ], [ 5.173, 51.316 ], [ 5.2, 51.323 ], [ 5.242, 51.305 ], [ 5.226, 51.268 ], [ 5.238, 51.261 ], [ 5.216, 51.247 ], [ 5.215, 51.221 ], [ 5.217, 51.211 ], [ 5.222, 51.211 ], [ 5.228, 51.204 ], [ 5.239, 51.201 ], [ 5.26, 51.184 ], [ 5.261, 51.147 ], [ 5.257, 51.147 ], [ 5.235, 51.133 ], [ 5.222, 51.139 ], [ 5.205, 51.14 ], [ 5.203, 51.129 ], [ 5.199, 51.125 ], [ 5.182, 51.118 ], [ 5.132, 51.118 ], [ 5.127, 51.108 ], [ 5.103, 51.097 ], [ 5.095, 51.085 ], [ 5.035, 51.074 ], [ 5.011, 51.074 ], [ 5.009, 51.057 ], [ 4.997, 51.056 ], [ 4.982, 51.035 ], [ 4.981, 51.039 ], [ 4.971, 51.037 ], [ 4.967, 51.046 ], [ 4.947, 51.037 ], [ 4.911, 51.035 ], [ 4.903, 51.029 ], [ 4.904, 51.026 ], [ 4.896, 51.023 ], [ 4.882, 51.02 ], [ 4.873, 51.024 ], [ 4.843, 51.012 ], [ 4.824, 51.013 ], [ 4.817, 51.01 ], [ 4.81, 51.011 ], [ 4.808, 51.014 ], [ 4.811, 51.016 ], [ 4.809, 51.018 ], [ 4.811, 51.019 ], [ 4.807, 51.021 ], [ 4.802, 51.028 ], [ 4.797, 51.028 ], [ 4.789, 51.039 ], [ 4.774, 51.035 ], [ 4.758, 51.023 ], [ 4.738, 51.027 ], [ 4.731, 51.024 ], [ 4.731, 51.02 ], [ 4.71, 51.012 ], [ 4.703, 51.0 ], [ 4.695, 50.999 ], [ 4.709, 51.014 ], [ 4.69, 51.016 ], [ 4.691, 51.019 ], [ 4.685, 51.024 ], [ 4.662, 51.019 ], [ 4.636, 51.017 ], [ 4.63, 51.01 ], [ 4.606, 51.011 ], [ 4.604, 51.0 ], [ 4.599, 50.998 ], [ 4.6, 50.993 ], [ 4.588, 50.994 ], [ 4.583, 50.99 ], [ 4.579, 50.992 ], [ 4.582, 50.993 ], [ 4.578, 50.998 ], [ 4.578, 50.996 ], [ 4.574, 50.995 ], [ 4.573, 50.996 ], [ 4.57, 50.994 ], [ 4.562, 50.997 ], [ 4.565, 51.001 ], [ 4.552, 51.003 ], [ 4.545, 51.003 ], [ 4.54, 50.998 ], [ 4.531, 50.997 ], [ 4.532, 50.995 ], [ 4.529, 50.992 ], [ 4.492, 51.009 ], [ 4.486, 51.005 ], [ 4.489, 50.996 ], [ 4.48, 50.991 ], [ 4.469, 50.995 ], [ 4.465, 50.993 ], [ 4.454, 51.006 ], [ 4.426, 50.999 ], [ 4.421, 50.995 ], [ 4.418, 50.996 ], [ 4.418, 51.0 ], [ 4.411, 51.0 ], [ 4.395, 50.996 ], [ 4.392, 50.999 ], [ 4.394, 51.0 ], [ 4.393, 51.003 ], [ 4.39, 51.004 ], [ 4.39, 51.011 ], [ 4.37, 51.014 ], [ 4.373, 51.022 ], [ 4.381, 51.029 ], [ 4.374, 51.031 ], [ 4.376, 51.028 ], [ 4.365, 51.024 ], [ 4.362, 51.018 ], [ 4.349, 51.019 ] ], [ [ 4.571, 50.998 ], [ 4.569, 50.996 ], [ 4.573, 50.996 ], [ 4.571, 50.998 ] ], [ [ 4.87, 51.411 ], [ 4.873, 51.412 ], [ 4.872, 51.413 ], [ 4.87, 51.411 ] ] ], [ [ [ 4.841, 51.422 ], [ 4.836, 51.417 ], [ 4.833, 51.42 ], [ 4.841, 51.422 ] ] ], [ [ [ 4.867, 51.414 ], [ 4.868, 51.413 ], [ 4.866, 51.413 ], [ 4.867, 51.414 ] ] ], [ [ [ 4.841, 51.418 ], [ 4.839, 51.418 ], [ 4.84, 51.419 ], [ 4.841, 51.418 ] ] ], [ [ [ 4.89, 51.425 ], [ 4.892, 51.424 ], [ 4.891, 51.423 ], [ 4.89, 51.425 ] ] ], [ [ [ 4.932, 51.406 ], [ 4.93, 51.407 ], [ 4.928, 51.408 ], [ 4.936, 51.409 ], [ 4.936, 51.405 ], [ 4.929, 51.405 ], [ 4.932, 51.406 ] ] ], [ [ [ 4.935, 51.438 ], [ 4.935, 51.436 ], [ 4.936, 51.438 ], [ 4.94, 51.439 ], [ 4.94, 51.436 ], [ 4.936, 51.434 ], [ 4.94, 51.434 ], [ 4.94, 51.431 ], [ 4.931, 51.43 ], [ 4.927, 51.434 ], [ 4.915, 51.435 ], [ 4.921, 51.437 ], [ 4.919, 51.441 ], [ 4.922, 51.443 ], [ 4.919, 51.447 ], [ 4.926, 51.445 ], [ 4.928, 51.444 ], [ 4.926, 51.443 ], [ 4.928, 51.439 ], [ 4.936, 51.446 ], [ 4.935, 51.444 ], [ 4.938, 51.445 ], [ 4.939, 51.444 ], [ 4.94, 51.444 ], [ 4.94, 51.442 ], [ 4.934, 51.442 ], [ 4.936, 51.44 ], [ 4.935, 51.439 ], [ 4.935, 51.438 ] ], [ [ 4.933, 51.436 ], [ 4.931, 51.436 ], [ 4.931, 51.435 ], [ 4.933, 51.436 ] ], [ [ 4.924, 51.438 ], [ 4.925, 51.442 ], [ 4.922, 51.44 ], [ 4.924, 51.438 ] ], [ [ 4.934, 51.433 ], [ 4.934, 51.432 ], [ 4.935, 51.432 ], [ 4.934, 51.433 ] ], [ [ 4.932, 51.44 ], [ 4.931, 51.44 ], [ 4.931, 51.439 ], [ 4.932, 51.44 ] ] ], [ [ [ 4.943, 51.44 ], [ 4.941, 51.438 ], [ 4.941, 51.439 ], [ 4.942, 51.44 ], [ 4.943, 51.44 ] ] ], [ [ [ 4.95, 51.444 ], [ 4.944, 51.444 ], [ 4.948, 51.446 ], [ 4.95, 51.444 ] ] ], [ [ [ 4.926, 51.445 ], [ 4.924, 51.446 ], [ 4.926, 51.447 ], [ 4.926, 51.445 ] ] ], [ [ [ 4.934, 51.447 ], [ 4.932, 51.447 ], [ 4.932, 51.448 ], [ 4.934, 51.447 ] ] ], [ [ [ 4.928, 51.448 ], [ 4.927, 51.449 ], [ 4.928, 51.449 ], [ 4.928, 51.448 ] ] ], [ [ [ 4.933, 51.45 ], [ 4.948, 51.451 ], [ 4.951, 51.452 ], [ 4.953, 51.452 ], [ 4.941, 51.445 ], [ 4.94, 51.445 ], [ 4.933, 51.45 ] ] ], [ [ [ 4.931, 51.45 ], [ 4.932, 51.449 ], [ 4.93, 51.449 ], [ 4.931, 51.45 ] ] ] ] } },
{ "type": "Feature", "properties": { "nis": "20001" }, "geometry": { "type": "MultiPolygon", "coordinates": [ [ [ [ 4.017, 50.694 ], [ 4.01, 50.699 ], [ 3.988, 50.687 ], [ 3.971, 50.691 ], [ 3.931, 50.689 ], [ 3.927, 50.695 ], [ 3.924, 50.692 ], [ 3.912, 50.691 ], [ 3.91, 50.693 ], [ 3.913, 50.699 ], [ 3.904, 50.705 ], [ 3.902, 50.711 ], [ 3.897, 50.709 ], [ 3.889, 50.713 ], [ 3.897, 50.728 ], [ 3.894, 50.73 ], [ 3.896, 50.733 ], [ 3.906, 50.729 ], [ 3.91, 50.729 ], [ 3.913, 50.733 ], [ 3.92, 50.728 ], [ 3.934, 50.731 ], [ 3.944, 50.729 ], [ 3.945, 50.732 ], [ 3.953, 50.733 ], [ 3.954, 50.737 ], [ 3.948, 50.74 ], [ 3.946, 50.75 ], [ 3.933, 50.746 ], [ 3.931, 50.758 ], [ 3.942, 50.773 ], [ 3.95, 50.777 ], [ 3.96, 50.78 ], [ 3.963, 50.776 ], [ 3.972, 50.776 ], [ 3.969, 50.767 ], [ 3.985, 50.766 ], [ 3.999, 50.779 ], [ 4.002, 50.779 ], [ 4.015, 50.771 ], [ 4.026, 50.782 ], [ 4.037, 50.777 ], [ 4.041, 50.78 ], [ 4.04, 50.783 ], [ 4.049, 50.786 ], [ 4.053, 50.784 ], [ 4.062, 50.791 ], [ 4.06, 50.793 ], [ 4.068, 50.8 ], [ 4.072, 50.812 ], [ 4.075, 50.814 ], [ 4.075, 50.819 ], [ 4.069, 50.826 ], [ 4.07, 50.833 ], [ 4.057, 50.835 ], [ 4.048, 50.833 ], [ 4.041, 50.838 ], [ 4.052, 50.842 ], [ 4.059, 50.849 ], [ 4.058, 50.854 ], [ 4.065, 50.859 ], [ 4.064, 50.864 ], [ 4.069, 50.87 ], [ 4.08, 50.871 ], [ 4.085, 50.877 ], [ 4.082, 50.878 ], [ 4.09, 50.89 ], [ 4.082, 50.891 ], [ 4.074, 50.899 ], [ 4.101, 50.91 ], [ 4.092, 50.916 ], [ 4.089, 50.926 ], [ 4.096, 50.932 ], [ 4.113, 50.926 ], [ 4.12, 50.926 ], [ 4.123, 50.923 ], [ 4.137, 50.921 ], [ 4.139, 50.917 ], [ 4.144, 50.921 ], [ 4.145, 50.925 ], [ 4.153, 50.923 ], [ 4.153, 50.929 ], [ 4.158, 50.928 ], [ 4.162, 50.932 ], [ 4.153, 50.939 ], [ 4.163, 50.943 ], [ 4.159, 50.945 ], [ 4.163, 50.949 ], [ 4.158, 50.949 ], [ 4.154, 50.957 ], [ 4.143, 50.965 ], [ 4.15, 50.975 ], [ 4.152, 50.974 ], [ 4.157, 50.978 ], [ 4.157, 50.987 ], [ 4.17, 50.989 ], [ 4.186, 50.982 ], [ 4.198, 50.983 ], [ 4.22, 50.991 ], [ 4.222, 50.99 ], [ 4.22, 50.992 ], [ 4.235, 51.004 ], [ 4.234, 51.007 ], [ 4.221, 51.014 ], [ 4.238, 51.02 ], [ 4.238, 51.031 ], [ 4.241, 51.037 ], [ 4.25, 51.034 ], [ 4.262, 51.036 ], [ 4.269, 51.042 ], [ 4.281, 51.043 ], [ 4.283, 51.04 ], [ 4.309, 51.036 ], [ 4.323, 51.027 ], [ 4.347, 51.027 ], [ 4.349, 51.025 ], [ 4.342, 51.02 ], [ 4.343, 51.017 ], [ 4.362, 51.018 ], [ 4.365, 51.024 ], [ 4.376, 51.028 ], [ 4.373, 51.029 ], [ 4.375, 51.031 ], [ 4.382, 51.029 ], [ 4.373, 51.022 ], [ 4.371, 51.013 ], [ 4.39, 51.011 ], [ 4.39, 51.004 ], [ 4.393, 51.003 ], [ 4.394, 51.0 ], [ 4.392, 50.999 ], [ 4.395, 50.996 ], [ 4.412, 51.0 ], [ 4.418, 51.0 ], [ 4.418, 50.996 ], [ 4.421, 50.995 ], [ 4.426, 50.999 ], [ 4.454, 51.006 ], [ 4.465, 50.993 ], [ 4.469, 50.995 ], [ 4.48, 50.991 ], [ 4.489, 50.996 ], [ 4.486, 51.005 ], [ 4.492, 51.009 ], [ 4.529, 50.992 ], [ 4.532, 50.995 ], [ 4.531, 50.997 ], [ 4.54, 50.998 ], [ 4.545, 51.003 ], [ 4.552, 51.003 ], [ 4.565, 51.001 ], [ 4.562, 50.997 ], [ 4.57, 50.994 ], [ 4.573, 50.996 ], [ 4.574, 50.995 ], [ 4.578, 50.996 ], [ 4.578, 50.998 ], [ 4.582, 50.993 ], [ 4.579, 50.992 ], [ 4.584, 50.99 ], [ 4.588, 50.994 ], [ 4.6, 50.993 ], [ 4.599, 50.998 ], [ 4.604, 51.0 ], [ 4.606, 51.011 ], [ 4.63, 51.01 ], [ 4.636, 51.017 ], [ 4.662, 51.019 ], [ 4.685, 51.024 ], [ 4.691, 51.019 ], [ 4.69, 51.016 ], [ 4.709, 51.014 ], [ 4.696, 50.999 ], [ 4.705, 51.001 ], [ 4.71, 51.012 ], [ 4.731, 51.02 ], [ 4.731, 51.024 ], [ 4.738, 51.027 ], [ 4.758, 51.023 ], [ 4.774, 51.035 ], [ 4.789, 51.039 ], [ 4.797, 51.028 ], [ 4.802, 51.028 ], [ 4.807, 51.021 ], [ 4.811, 51.019 ], [ 4.809, 51.018 ], [ 4.811, 51.016 ], [ 4.808, 51.014 ], [ 4.81, 51.011 ], [ 4.816, 51.01 ], [ 4.824, 51.013 ], [ 4.843, 51.012 ], [ 4.873, 51.024 ], [ 4.882, 51.02 ], [ 4.896, 51.023 ], [ 4.904, 51.026 ], [ 4.903, 51.029 ], [ 4.911, 51.035 ], [ 4.947, 51.037 ], [ 4.967, 51.046 ], [ 4.971, 51.037 ], [ 4.981, 51.039 ], [ 4.98, 51.032 ], [ 4.984, 51.031 ], [ 5.001, 51.034 ], [ 5.009, 51.039 ], [ 5.022, 51.02 ], [ 5.044, 51.024 ], [ 5.056, 51.022 ], [ 5.058, 51.015 ], [ 5.083, 51.024 ], [ 5.082, 51.028 ], [ 5.079, 51.028 ], [ 5.08, 51.048 ], [ 5.117, 51.05 ], [ 5.16, 51.024 ], [ 5.13, 51.015 ], [ 5.124, 51.02 ], [ 5.129, 51.022 ], [ 5.127, 51.025 ], [ 5.115, 51.019 ], [ 5.125, 50.998 ], [ 5.114, 50.998 ], [ 5.095, 50.989 ], [ 5.083, 50.987 ], [ 5.084, 50.984 ], [ 5.079, 50.983 ], [ 5.085, 50.97 ], [ 5.084, 50.968 ], [ 5.076, 50.959 ], [ 5.058, 50.954 ], [ 5.053, 50.946 ], [ 5.042, 50.943 ], [ 5.051, 50.923 ], [ 5.063, 50.916 ], [ 5.078, 50.922 ], [ 5.092, 50.909 ], [ 5.103, 50.915 ], [ 5.133, 50.922 ], [ 5.135, 50.914 ], [ 5.157, 50.912 ], [ 5.17, 50.914 ], [ 5.185, 50.907 ], [ 5.188, 50.902 ], [ 5.186, 50.889 ], [ 5.179, 50.886 ], [ 5.177, 50.877 ], [ 5.17, 50.872 ], [ 5.155, 50.88 ], [ 5.155, 50.865 ], [ 5.148, 50.861 ], [ 5.15, 50.858 ], [ 5.147, 50.855 ], [ 5.149, 50.853 ], [ 5.137, 50.848 ], [ 5.145, 50.845 ], [ 5.136, 50.835 ], [ 5.135, 50.83 ], [ 5.138, 50.825 ], [ 5.132, 50.82 ], [ 5.13, 50.815 ], [ 5.143, 50.809 ], [ 5.15, 50.812 ], [ 5.152, 50.809 ], [ 5.143, 50.804 ], [ 5.133, 50.792 ], [ 5.117, 50.793 ], [ 5.109, 50.783 ], [ 5.107, 50.779 ], [ 5.109, 50.778 ], [ 5.111, 50.771 ], [ 5.117, 50.764 ], [ 5.104, 50.751 ], [ 5.102, 50.741 ], [ 5.107, 50.742 ], [ 5.114, 50.739 ], [ 5.114, 50.737 ], [ 5.121, 50.735 ], [ 5.119, 50.732 ], [ 5.115, 50.731 ], [ 5.11, 50.722 ], [ 5.107, 50.723 ], [ 5.109, 50.72 ], [ 5.105, 50.713 ], [ 5.107, 50.713 ], [ 5.101, 50.705 ], [ 5.096, 50.703 ], [ 5.075, 50.709 ], [ 5.07, 50.706 ], [ 5.063, 50.714 ], [ 5.065, 50.715 ], [ 5.056, 50.716 ], [ 5.044, 50.723 ], [ 5.047, 50.731 ], [ 5.042, 50.734 ], [ 5.048, 50.739 ], [ 5.02, 50.751 ], [ 5.005, 50.766 ], [ 4.982, 50.77 ], [ 4.979, 50.766 ], [ 4.97, 50.768 ], [ 4.969, 50.762 ], [ 4.953, 50.755 ], [ 4.954, 50.751 ], [ 4.93, 50.747 ], [ 4.925, 50.743 ], [ 4.916, 50.749 ], [ 4.906, 50.75 ], [ 4.911, 50.756 ], [ 4.903, 50.761 ], [ 4.909, 50.769 ], [ 4.9, 50.769 ], [ 4.899, 50.773 ], [ 4.886, 50.763 ], [ 4.877, 50.767 ], [ 4.861, 50.764 ], [ 4.847, 50.768 ], [ 4.835, 50.763 ], [ 4.831, 50.77 ], [ 4.839, 50.773 ], [ 4.835, 50.776 ], [ 4.831, 50.774 ], [ 4.828, 50.777 ], [ 4.812, 50.776 ], [ 4.807, 50.787 ], [ 4.791, 50.799 ], [ 4.767, 50.804 ], [ 4.762, 50.802 ], [ 4.76, 50.807 ], [ 4.749, 50.807 ], [ 4.739, 50.804 ], [ 4.74, 50.802 ], [ 4.736, 50.8 ], [ 4.726, 50.803 ], [ 4.724, 50.801 ], [ 4.728, 50.798 ], [ 4.715, 50.789 ], [ 4.71, 50.796 ], [ 4.703, 50.79 ], [ 4.692, 50.788 ], [ 4.691, 50.792 ], [ 4.687, 50.791 ], [ 4.686, 50.795 ], [ 4.678, 50.793 ], [ 4.674, 50.795 ], [ 4.674, 50.792 ], [ 4.667, 50.792 ], [ 4.642, 50.799 ], [ 4.647, 50.786 ], [ 4.636, 50.772 ], [ 4.642, 50.769 ], [ 4.647, 50.759 ], [ 4.654, 50.759 ], [ 4.655, 50.755 ], [ 4.651, 50.755 ], [ 4.652, 50.752 ], [ 4.647, 50.752 ], [ 4.644, 50.746 ], [ 4.639, 50.746 ], [ 4.634, 50.743 ], [ 4.619, 50.744 ], [ 4.605, 50.741 ], [ 4.598, 50.746 ], [ 4.601, 50.756 ], [ 4.596, 50.764 ], [ 4.579, 50.758 ], [ 4.581, 50.754 ], [ 4.574, 50.748 ], [ 4.565, 50.748 ], [ 4.562, 50.744 ], [ 4.556, 50.749 ], [ 4.534, 50.739 ], [ 4.53, 50.741 ], [ 4.525, 50.738 ], [ 4.532, 50.734 ], [ 4.532, 50.731 ], [ 4.523, 50.727 ], [ 4.509, 50.731 ], [ 4.513, 50.732 ], [ 4.5, 50.738 ], [ 4.502, 50.744 ], [ 4.495, 50.74 ], [ 4.492, 50.743 ], [ 4.502, 50.754 ], [ 4.494, 50.757 ], [ 4.485, 50.752 ], [ 4.483, 50.755 ], [ 4.48, 50.751 ], [ 4.471, 50.752 ], [ 4.464, 50.755 ], [ 4.424, 50.736 ], [ 4.396, 50.735 ], [ 4.391, 50.732 ], [ 4.372, 50.729 ], [ 4.373, 50.716 ], [ 4.352, 50.715 ], [ 4.34, 50.732 ], [ 4.334, 50.734 ], [ 4.329, 50.729 ], [ 4.324, 50.729 ], [ 4.324, 50.724 ], [ 4.334, 50.728 ], [ 4.331, 50.721 ], [ 4.335, 50.717 ], [ 4.335, 50.715 ], [ 4.328, 50.718 ], [ 4.327, 50.715 ], [ 4.323, 50.72 ], [ 4.314, 50.72 ], [ 4.308, 50.706 ], [ 4.311, 50.703 ], [ 4.29, 50.694 ], [ 4.284, 50.698 ], [ 4.262, 50.7 ], [ 4.248, 50.69 ], [ 4.242, 50.69 ], [ 4.231, 50.699 ], [ 4.209, 50.708 ], [ 4.182, 50.707 ], [ 4.172, 50.722 ], [ 4.156, 50.729 ], [ 4.152, 50.729 ], [ 4.158, 50.727 ], [ 4.153, 50.725 ], [ 4.142, 50.729 ], [ 4.14, 50.725 ], [ 4.141, 50.723 ], [ 4.135, 50.716 ], [ 4.116, 50.713 ], [ 4.109, 50.716 ], [ 4.097, 50.708 ], [ 4.099, 50.706 ], [ 4.091, 50.707 ], [ 4.086, 50.714 ], [ 4.072, 50.712 ], [ 4.059, 50.694 ], [ 4.052, 50.702 ], [ 4.035, 50.696 ], [ 4.017, 50.694 ] ], [ [ 4.307, 50.891 ], [ 4.294, 50.889 ], [ 4.299, 50.88 ], [ 4.279, 50.866 ], [ 4.28, 50.86 ], [ 4.29, 50.856 ], [ 4.283, 50.854 ], [ 4.288, 50.848 ], [ 4.283, 50.847 ], [ 4.283, 50.838 ], [ 4.275, 50.839 ], [ 4.272, 50.836 ], [ 4.256, 50.835 ], [ 4.255, 50.827 ], [ 4.244, 50.82 ], [ 4.245, 50.818 ], [ 4.25, 50.819 ], [ 4.256, 50.817 ], [ 4.26, 50.811 ], [ 4.273, 50.812 ], [ 4.284, 50.807 ], [ 4.294, 50.808 ], [ 4.3, 50.813 ], [ 4.306, 50.812 ], [ 4.302, 50.804 ], [ 4.305, 50.799 ], [ 4.317, 50.796 ], [ 4.322, 50.783 ], [ 4.331, 50.776 ], [ 4.341, 50.774 ], [ 4.347, 50.775 ], [ 4.381, 50.769 ], [ 4.383, 50.764 ], [ 4.433, 50.778 ], [ 4.435, 50.776 ], [ 4.482, 50.793 ], [ 4.447, 50.808 ], [ 4.453, 50.808 ], [ 4.458, 50.81 ], [ 4.452, 50.809 ], [ 4.448, 50.811 ], [ 4.458, 50.816 ], [ 4.455, 50.818 ], [ 4.477, 50.82 ], [ 4.466, 50.836 ], [ 4.468, 50.837 ], [ 4.467, 50.845 ], [ 4.461, 50.852 ], [ 4.448, 50.854 ], [ 4.439, 50.86 ], [ 4.437, 50.859 ], [ 4.43, 50.861 ], [ 4.421, 50.868 ], [ 4.429, 50.876 ], [ 4.427, 50.877 ], [ 4.437, 50.879 ], [ 4.427, 50.89 ], [ 4.433, 50.895 ], [ 4.423, 50.903 ], [ 4.412, 50.907 ], [ 4.414, 50.912 ], [ 4.403, 50.914 ], [ 4.389, 50.91 ], [ 4.377, 50.897 ], [ 4.364, 50.901 ], [ 4.33, 50.901 ], [ 4.307, 50.891 ] ] ], [ [ [ 4.569, 50.996 ], [ 4.571, 50.998 ], [ 4.573, 50.996 ], [ 4.569, 50.996 ] ] ] ] } },
{ "type": "Feature", "properties": { "nis": "20002" }, "geometry": { "type": "Polygon", "coordinates": [ [ [ 4.381, 50.563 ], [ 4.377, 50.559 ], [ 4.359, 50.563 ], [ 4.357, 50.562 ], [ 4.359, 50.559 ], [ 4.357, 50.556 ], [ 4.342, 50.553 ], [ 4.345, 50.549 ], [ 4.338, 50.544 ], [ 4.331, 50.543 ], [ 4.325, 50.549 ], [ 4.331, 50.551 ], [ 4.335, 50.555 ], [ 4.331, 50.56 ], [ 4.336, 50.567 ], [ 4.334, 50.569 ], [ 4.302, 50.568 ], [ 4.301, 50.573 ], [ 4.297, 50.576 ], [ 4.299, 50.577 ], [ 4.285, 50.585 ], [ 4.28, 50.592 ], [ 4.275, 50.592 ], [ 4.275, 50.596 ], [ 4.261, 50.593 ], [ 4.247, 50.597 ], [ 4.252, 50.601 ], [ 4.246, 50.612 ], [ 4.254, 50.616 ], [ 4.245, 50.621 ], [ 4.231, 50.625 ], [ 4.199, 50.625 ], [ 4.2, 50.631 ], [ 4.197, 50.635 ], [ 4.204, 50.647 ], [ 4.192, 50.657 ], [ 4.177, 50.663 ], [ 4.161, 50.647 ], [ 4.147, 50.639 ], [ 4.145, 50.634 ], [ 4.142, 50.632 ], [ 4.133, 50.629 ], [ 4.117, 50.635 ], [ 4.107, 50.632 ], [ 4.091, 50.654 ], [ 4.094, 50.656 ], [ 4.093, 50.654 ], [ 4.098, 50.652 ], [ 4.1, 50.663 ], [ 4.097, 50.668 ], [ 4.095, 50.666 ], [ 4.091, 50.669 ], [ 4.097, 50.676 ], [ 4.095, 50.68 ], [ 4.1, 50.692 ], [ 4.095, 50.695 ], [ 4.092, 50.701 ], [ 4.098, 50.704 ], [ 4.101, 50.701 ], [ 4.106, 50.706 ], [ 4.114, 50.705 ], [ 4.111, 50.71 ], [ 4.1, 50.706 ], [ 4.097, 50.708 ], [ 4.109, 50.716 ], [ 4.116, 50.713 ], [ 4.135, 50.716 ], [ 4.141, 50.723 ], [ 4.14, 50.725 ], [ 4.142, 50.729 ], [ 4.153, 50.725 ], [ 4.158, 50.727 ], [ 4.152, 50.729 ], [ 4.156, 50.729 ], [ 4.172, 50.722 ], [ 4.182, 50.707 ], [ 4.209, 50.708 ], [ 4.231, 50.699 ], [ 4.242, 50.69 ], [ 4.248, 50.69 ], [ 4.262, 50.7 ], [ 4.284, 50.698 ], [ 4.29, 50.694 ], [ 4.311, 50.703 ], [ 4.308, 50.706 ], [ 4.314, 50.72 ], [ 4.323, 50.72 ], [ 4.327, 50.715 ], [ 4.328, 50.718 ], [ 4.335, 50.715 ], [ 4.331, 50.721 ], [ 4.334, 50.728 ], [ 4.324, 50.724 ], [ 4.324, 50.729 ], [ 4.329, 50.729 ], [ 4.334, 50.734 ], [ 4.34, 50.732 ], [ 4.352, 50.715 ], [ 4.373, 50.716 ], [ 4.372, 50.729 ], [ 4.391, 50.732 ], [ 4.396, 50.735 ], [ 4.424, 50.736 ], [ 4.464, 50.755 ], [ 4.471, 50.752 ], [ 4.48, 50.751 ], [ 4.483, 50.755 ], [ 4.485, 50.752 ], [ 4.494, 50.757 ], [ 4.502, 50.754 ], [ 4.492, 50.743 ], [ 4.495, 50.74 ], [ 4.502, 50.744 ], [ 4.5, 50.738 ], [ 4.513, 50.732 ], [ 4.509, 50.731 ], [ 4.523, 50.727 ], [ 4.532, 50.731 ], [ 4.532, 50.734 ], [ 4.525, 50.738 ], [ 4.53, 50.741 ], [ 4.534, 50.739 ], [ 4.556, 50.749 ], [ 4.562, 50.744 ], [ 4.565, 50.748 ], [ 4.576, 50.747 ], [ 4.574, 50.748 ], [ 4.581, 50.754 ], [ 4.579, 50.757 ], [ 4.579, 50.758 ], [ 4.596, 50.764 ], [ 4.601, 50.756 ], [ 4.598, 50.746 ], [ 4.605, 50.741 ], [ 4.619, 50.744 ], [ 4.634, 50.743 ], [ 4.639, 50.746 ], [ 4.644, 50.746 ], [ 4.647, 50.752 ], [ 4.652, 50.752 ], [ 4.651, 50.755 ], [ 4.655, 50.755 ], [ 4.654, 50.759 ], [ 4.647, 50.759 ], [ 4.642, 50.769 ], [ 4.636, 50.772 ], [ 4.647, 50.786 ], [ 4.642, 50.799 ], [ 4.667, 50.792 ], [ 4.674, 50.792 ], [ 4.674, 50.795 ], [ 4.678, 50.793 ], [ 4.686, 50.795 ], [ 4.687, 50.791 ], [ 4.691, 50.792 ], [ 4.692, 50.788 ], [ 4.703, 50.79 ], [ 4.71, 50.796 ], [ 4.715, 50.789 ], [ 4.728, 50.798 ], [ 4.724, 50.801 ], [ 4.726, 50.803 ], [ 4.736, 50.8 ], [ 4.74, 50.802 ], [ 4.739, 50.804 ], [ 4.749, 50.807 ], [ 4.76, 50.807 ], [ 4.762, 50.802 ], [ 4.767, 50.804 ], [ 4.791, 50.799 ], [ 4.807, 50.787 ], [ 4.812, 50.776 ], [ 4.828, 50.777 ], [ 4.831, 50.774 ], [ 4.835, 50.776 ], [ 4.839, 50.773 ], [ 4.831, 50.77 ], [ 4.835, 50.763 ], [ 4.847, 50.768 ], [ 4.861, 50.764 ], [ 4.877, 50.767 ], [ 4.886, 50.763 ], [ 4.899, 50.773 ], [ 4.9, 50.769 ], [ 4.909, 50.769 ], [ 4.903, 50.761 ], [ 4.911, 50.756 ], [ 4.906, 50.75 ], [ 4.916, 50.749 ], [ 4.925, 50.743 ], [ 4.93, 50.747 ], [ 4.954, 50.751 ], [ 4.953, 50.755 ], [ 4.969, 50.762 ], [ 4.969, 50.767 ], [ 4.979, 50.766 ], [ 4.982, 50.77 ], [ 5.006, 50.765 ], [ 5.02, 50.749 ], [ 5.017, 50.744 ], [ 5.017, 50.733 ], [ 5.013, 50.731 ], [ 5.009, 50.733 ], [ 5.008, 50.729 ], [ 4.998, 50.728 ], [ 4.993, 50.724 ], [ 4.998, 50.721 ], [ 4.994, 50.718 ], [ 5.01, 50.712 ], [ 5.01, 50.707 ], [ 5.017, 50.702 ], [ 5.001, 50.694 ], [ 5.0, 50.686 ], [ 4.997, 50.684 ], [ 4.999, 50.675 ], [ 4.997, 50.672 ], [ 5.003, 50.665 ], [ 4.991, 50.657 ], [ 4.988, 50.645 ], [ 4.979, 50.64 ], [ 4.965, 50.648 ], [ 4.957, 50.645 ], [ 4.951, 50.647 ], [ 4.941, 50.643 ], [ 4.941, 50.636 ], [ 4.929, 50.627 ], [ 4.915, 50.626 ], [ 4.9, 50.629 ], [ 4.898, 50.628 ], [ 4.901, 50.622 ], [ 4.863, 50.618 ], [ 4.84, 50.61 ], [ 4.817, 50.609 ], [ 4.8, 50.602 ], [ 4.8, 50.605 ], [ 4.786, 50.602 ], [ 4.797, 50.592 ], [ 4.791, 50.59 ], [ 4.787, 50.598 ], [ 4.78, 50.601 ], [ 4.766, 50.6 ], [ 4.745, 50.589 ], [ 4.747, 50.593 ], [ 4.741, 50.598 ], [ 4.745, 50.601 ], [ 4.737, 50.605 ], [ 4.739, 50.609 ], [ 4.735, 50.611 ], [ 4.714, 50.608 ], [ 4.707, 50.604 ], [ 4.711, 50.601 ], [ 4.71, 50.6 ], [ 4.712, 50.596 ], [ 4.705, 50.594 ], [ 4.697, 50.599 ], [ 4.679, 50.603 ], [ 4.673, 50.608 ], [ 4.66, 50.604 ], [ 4.656, 50.598 ], [ 4.657, 50.586 ], [ 4.662, 50.576 ], [ 4.673, 50.571 ], [ 4.669, 50.566 ], [ 4.645, 50.56 ], [ 4.642, 50.565 ], [ 4.638, 50.562 ], [ 4.634, 50.566 ], [ 4.621, 50.562 ], [ 4.618, 50.57 ], [ 4.611, 50.567 ], [ 4.602, 50.569 ], [ 4.589, 50.562 ], [ 4.575, 50.561 ], [ 4.577, 50.542 ], [ 4.513, 50.525 ], [ 4.503, 50.528 ], [ 4.504, 50.54 ], [ 4.49, 50.538 ], [ 4.484, 50.534 ], [ 4.475, 50.536 ], [ 4.467, 50.528 ], [ 4.463, 50.532 ], [ 4.468, 50.538 ], [ 4.466, 50.546 ], [ 4.477, 50.551 ], [ 4.475, 50.555 ], [ 4.472, 50.554 ], [ 4.47, 50.559 ], [ 4.45, 50.554 ], [ 4.444, 50.56 ], [ 4.422, 50.558 ], [ 4.417, 50.565 ], [ 4.381, 50.563 ] ] ] } },
{ "type": "Feature", "properties": { "nis": "30000" }, "geometry": { "type": "Polygon", "coordinates": [ [ [ 2.738, 50.781 ], [ 2.721, 50.802 ], [ 2.726, 50.809 ], [ 2.718, 50.813 ], [ 2.713, 50.815 ], [ 2.679, 50.813 ], [ 2.669, 50.823 ], [ 2.656, 50.814 ], [ 2.635, 50.813 ], [ 2.626, 50.837 ], [ 2.616, 50.84 ], [ 2.617, 50.848 ], [ 2.611, 50.85 ], [ 2.599, 50.849 ], [ 2.599, 50.853 ], [ 2.612, 50.863 ], [ 2.613, 50.868 ], [ 2.606, 50.874 ], [ 2.61, 50.88 ], [ 2.606, 50.883 ], [ 2.607, 50.886 ], [ 2.604, 50.886 ], [ 2.609, 50.895 ], [ 2.604, 50.905 ], [ 2.608, 50.91 ], [ 2.604, 50.917 ], [ 2.594, 50.914 ], [ 2.59, 50.919 ], [ 2.618, 50.935 ], [ 2.618, 50.941 ], [ 2.63, 50.943 ], [ 2.633, 50.946 ], [ 2.619, 50.967 ], [ 2.611, 50.974 ], [ 2.613, 50.975 ], [ 2.609, 50.981 ], [ 2.607, 50.982 ], [ 2.61, 50.985 ], [ 2.607, 50.991 ], [ 2.595, 50.992 ], [ 2.574, 51.003 ], [ 2.576, 51.006 ], [ 2.571, 51.011 ], [ 2.576, 51.014 ], [ 2.562, 51.058 ], [ 2.563, 51.065 ], [ 2.541, 51.094 ], [ 2.612, 51.117 ], [ 2.622, 51.122 ], [ 2.615, 51.123 ], [ 2.629, 51.128 ], [ 2.633, 51.128 ], [ 2.754, 51.168 ], [ 2.846, 51.205 ], [ 2.903, 51.232 ], [ 2.916, 51.241 ], [ 2.927, 51.241 ], [ 2.957, 51.252 ], [ 3.081, 51.306 ], [ 3.152, 51.327 ], [ 3.168, 51.336 ], [ 3.172, 51.345 ], [ 3.17, 51.352 ], [ 3.186, 51.363 ], [ 3.219, 51.361 ], [ 3.224, 51.358 ], [ 3.227, 51.351 ], [ 3.228, 51.355 ], [ 3.231, 51.356 ], [ 3.254, 51.348 ], [ 3.363, 51.373 ], [ 3.375, 51.359 ], [ 3.374, 51.349 ], [ 3.384, 51.341 ], [ 3.385, 51.334 ], [ 3.358, 51.315 ], [ 3.378, 51.303 ], [ 3.367, 51.299 ], [ 3.366, 51.296 ], [ 3.381, 51.287 ], [ 3.382, 51.282 ], [ 3.375, 51.278 ], [ 3.384, 51.27 ], [ 3.383, 51.267 ], [ 3.397, 51.249 ], [ 3.399, 51.237 ], [ 3.367, 51.227 ], [ 3.371, 51.221 ], [ 3.377, 51.221 ], [ 3.383, 51.204 ], [ 3.386, 51.203 ], [ 3.378, 51.197 ], [ 3.365, 51.197 ], [ 3.366, 51.193 ], [ 3.36, 51.192 ], [ 3.365, 51.187 ], [ 3.374, 51.191 ], [ 3.387, 51.187 ], [ 3.388, 51.181 ], [ 3.407, 51.16 ], [ 3.411, 51.16 ], [ 3.401, 51.151 ], [ 3.406, 51.147 ], [ 3.396, 51.141 ], [ 3.39, 51.131 ], [ 3.38, 51.128 ], [ 3.382, 51.124 ], [ 3.375, 51.12 ], [ 3.376, 51.118 ], [ 3.355, 51.112 ], [ 3.35, 51.107 ], [ 3.341, 51.105 ], [ 3.331, 51.099 ], [ 3.36, 51.087 ], [ 3.373, 51.085 ], [ 3.392, 51.073 ], [ 3.391, 51.07 ], [ 3.394, 51.068 ], [ 3.405, 51.068 ], [ 3.42, 51.063 ], [ 3.42, 51.055 ], [ 3.435, 51.054 ], [ 3.446, 51.047 ], [ 3.439, 51.04 ], [ 3.423, 51.039 ], [ 3.432, 51.032 ], [ 3.431, 51.027 ], [ 3.447, 51.016 ], [ 3.447, 51.01 ], [ 3.452, 51.007 ], [ 3.452, 51.004 ], [ 3.445, 50.999 ], [ 3.451, 50.995 ], [ 3.433, 50.989 ], [ 3.434, 50.984 ], [ 3.426, 50.981 ], [ 3.427, 50.976 ], [ 3.432, 50.971 ], [ 3.442, 50.97 ], [ 3.444, 50.967 ], [ 3.413, 50.958 ], [ 3.414, 50.954 ], [ 3.422, 50.949 ], [ 3.426, 50.951 ], [ 3.432, 50.947 ], [ 3.444, 50.952 ], [ 3.453, 50.948 ], [ 3.454, 50.949 ], [ 3.461, 50.943 ], [ 3.454, 50.941 ], [ 3.445, 50.944 ], [ 3.438, 50.941 ], [ 3.443, 50.937 ], [ 3.455, 50.938 ], [ 3.456, 50.932 ], [ 3.451, 50.929 ], [ 3.434, 50.934 ], [ 3.424, 50.93 ], [ 3.424, 50.926 ], [ 3.434, 50.918 ], [ 3.427, 50.916 ], [ 3.429, 50.914 ], [ 3.425, 50.913 ], [ 3.427, 50.912 ], [ 3.42, 50.911 ], [ 3.415, 50.904 ], [ 3.423, 50.899 ], [ 3.432, 50.897 ], [ 3.445, 50.901 ], [ 3.453, 50.908 ], [ 3.46, 50.908 ], [ 3.476, 50.896 ], [ 3.471, 50.889 ], [ 3.475, 50.883 ], [ 3.47, 50.877 ], [ 3.465, 50.874 ], [ 3.457, 50.876 ], [ 3.456, 50.868 ], [ 3.451, 50.868 ], [ 3.462, 50.861 ], [ 3.465, 50.862 ], [ 3.469, 50.854 ], [ 3.481, 50.858 ], [ 3.489, 50.854 ], [ 3.492, 50.847 ], [ 3.503, 50.841 ], [ 3.499, 50.84 ], [ 3.501, 50.837 ], [ 3.515, 50.832 ], [ 3.505, 50.827 ], [ 3.5, 50.828 ], [ 3.499, 50.824 ], [ 3.507, 50.824 ], [ 3.505, 50.821 ], [ 3.509, 50.814 ], [ 3.512, 50.815 ], [ 3.523, 50.805 ], [ 3.518, 50.797 ], [ 3.496, 50.791 ], [ 3.482, 50.779 ], [ 3.459, 50.765 ], [ 3.455, 50.771 ], [ 3.454, 50.765 ], [ 3.457, 50.764 ], [ 3.453, 50.76 ], [ 3.455, 50.759 ], [ 3.439, 50.759 ], [ 3.435, 50.757 ], [ 3.439, 50.755 ], [ 3.437, 50.754 ], [ 3.432, 50.757 ], [ 3.435, 50.75 ], [ 3.433, 50.749 ], [ 3.405, 50.746 ], [ 3.402, 50.74 ], [ 3.404, 50.739 ], [ 3.399, 50.736 ], [ 3.399, 50.732 ], [ 3.393, 50.732 ], [ 3.395, 50.729 ], [ 3.369, 50.726 ], [ 3.364, 50.719 ], [ 3.366, 50.718 ], [ 3.361, 50.714 ], [ 3.361, 50.71 ], [ 3.349, 50.716 ], [ 3.336, 50.717 ], [ 3.324, 50.722 ], [ 3.329, 50.731 ], [ 3.323, 50.735 ], [ 3.324, 50.739 ], [ 3.306, 50.755 ], [ 3.292, 50.749 ], [ 3.284, 50.752 ], [ 3.265, 50.751 ], [ 3.248, 50.757 ], [ 3.241, 50.756 ], [ 3.228, 50.765 ], [ 3.221, 50.766 ], [ 3.191, 50.756 ], [ 3.185, 50.759 ], [ 3.181, 50.755 ], [ 3.176, 50.756 ], [ 3.171, 50.759 ], [ 3.171, 50.762 ], [ 3.154, 50.779 ], [ 3.15, 50.79 ], [ 3.127, 50.786 ], [ 3.113, 50.795 ], [ 3.106, 50.782 ], [ 3.09, 50.776 ], [ 3.088, 50.773 ], [ 3.081, 50.773 ], [ 3.057, 50.781 ], [ 3.041, 50.776 ], [ 3.035, 50.77 ], [ 3.024, 50.771 ], [ 3.019, 50.774 ], [ 3.03, 50.78 ], [ 3.013, 50.784 ], [ 3.015, 50.79 ], [ 3.009, 50.795 ], [ 3.015, 50.803 ], [ 3.011, 50.807 ], [ 3.0, 50.811 ], [ 2.981, 50.804 ], [ 2.965, 50.802 ], [ 2.96, 50.798 ], [ 2.937, 50.794 ], [ 2.947, 50.791 ], [ 2.958, 50.782 ], [ 2.96, 50.779 ], [ 2.96, 50.774 ], [ 2.945, 50.772 ], [ 2.919, 50.764 ], [ 2.918, 50.761 ], [ 2.923, 50.757 ], [ 2.894, 50.753 ], [ 2.888, 50.753 ], [ 2.878, 50.762 ], [ 2.876, 50.761 ], [ 2.878, 50.754 ], [ 2.871, 50.755 ], [ 2.87, 50.76 ], [ 2.855, 50.758 ], [ 2.842, 50.751 ], [ 2.853, 50.74 ], [ 2.842, 50.736 ], [ 2.853, 50.724 ], [ 2.86, 50.722 ], [ 2.87, 50.713 ], [ 2.863, 50.708 ], [ 2.848, 50.723 ], [ 2.819, 50.716 ], [ 2.795, 50.726 ], [ 2.79, 50.726 ], [ 2.79, 50.732 ], [ 2.787, 50.733 ], [ 2.782, 50.743 ], [ 2.783, 50.752 ], [ 2.778, 50.751 ], [ 2.773, 50.755 ], [ 2.766, 50.755 ], [ 2.762, 50.759 ], [ 2.763, 50.763 ], [ 2.757, 50.763 ], [ 2.761, 50.772 ], [ 2.75, 50.779 ], [ 2.738, 50.781 ] ] ] } },
{ "type": "Feature", "properties": { "nis": "40000" }, "geometry": { "type": "Polygon", "coordinates": [ [ [ 3.509, 50.759 ], [ 3.478, 50.759 ], [ 3.481, 50.761 ], [ 3.467, 50.765 ], [ 3.46, 50.762 ], [ 3.459, 50.765 ], [ 3.482, 50.779 ], [ 3.496, 50.791 ], [ 3.519, 50.798 ], [ 3.523, 50.805 ], [ 3.512, 50.815 ], [ 3.509, 50.814 ], [ 3.505, 50.821 ], [ 3.507, 50.824 ], [ 3.499, 50.824 ], [ 3.5, 50.828 ], [ 3.505, 50.827 ], [ 3.515, 50.832 ], [ 3.501, 50.837 ], [ 3.499, 50.84 ], [ 3.503, 50.841 ], [ 3.492, 50.847 ], [ 3.489, 50.854 ], [ 3.481, 50.858 ], [ 3.469, 50.854 ], [ 3.465, 50.862 ], [ 3.462, 50.861 ], [ 3.451, 50.868 ], [ 3.456, 50.868 ], [ 3.457, 50.876 ], [ 3.465, 50.874 ], [ 3.475, 50.883 ], [ 3.471, 50.889 ], [ 3.476, 50.896 ], [ 3.471, 50.9 ], [ 3.46, 50.908 ], [ 3.453, 50.908 ], [ 3.445, 50.901 ], [ 3.432, 50.897 ], [ 3.423, 50.899 ], [ 3.415, 50.904 ], [ 3.42, 50.911 ], [ 3.427, 50.912 ], [ 3.425, 50.913 ], [ 3.429, 50.914 ], [ 3.427, 50.916 ], [ 3.434, 50.918 ], [ 3.424, 50.926 ], [ 3.424, 50.93 ], [ 3.434, 50.934 ], [ 3.451, 50.929 ], [ 3.456, 50.932 ], [ 3.455, 50.938 ], [ 3.443, 50.937 ], [ 3.438, 50.941 ], [ 3.445, 50.944 ], [ 3.454, 50.941 ], [ 3.461, 50.943 ], [ 3.454, 50.949 ], [ 3.453, 50.948 ], [ 3.444, 50.952 ], [ 3.432, 50.947 ], [ 3.426, 50.951 ], [ 3.422, 50.949 ], [ 3.414, 50.954 ], [ 3.413, 50.958 ], [ 3.444, 50.967 ], [ 3.442, 50.97 ], [ 3.432, 50.971 ], [ 3.427, 50.976 ], [ 3.426, 50.981 ], [ 3.434, 50.984 ], [ 3.433, 50.989 ], [ 3.451, 50.995 ], [ 3.445, 50.999 ], [ 3.452, 51.004 ], [ 3.452, 51.007 ], [ 3.447, 51.01 ], [ 3.447, 51.016 ], [ 3.431, 51.027 ], [ 3.432, 51.032 ], [ 3.423, 51.039 ], [ 3.439, 51.04 ], [ 3.446, 51.047 ], [ 3.435, 51.054 ], [ 3.42, 51.055 ], [ 3.42, 51.063 ], [ 3.405, 51.068 ], [ 3.394, 51.068 ], [ 3.391, 51.07 ], [ 3.392, 51.073 ], [ 3.373, 51.085 ], [ 3.36, 51.087 ], [ 3.331, 51.099 ], [ 3.341, 51.105 ], [ 3.35, 51.107 ], [ 3.355, 51.112 ], [ 3.376, 51.118 ], [ 3.375, 51.12 ], [ 3.382, 51.124 ], [ 3.38, 51.128 ], [ 3.39, 51.131 ], [ 3.396, 51.141 ], [ 3.406, 51.147 ], [ 3.401, 51.151 ], [ 3.411, 51.16 ], [ 3.407, 51.16 ], [ 3.388, 51.181 ], [ 3.387, 51.187 ], [ 3.374, 51.191 ], [ 3.365, 51.187 ], [ 3.36, 51.192 ], [ 3.366, 51.193 ], [ 3.365, 51.197 ], [ 3.378, 51.197 ], [ 3.386, 51.203 ], [ 3.383, 51.204 ], [ 3.377, 51.221 ], [ 3.371, 51.221 ], [ 3.367, 51.227 ], [ 3.399, 51.237 ], [ 3.397, 51.249 ], [ 3.383, 51.267 ], [ 3.384, 51.27 ], [ 3.38, 51.273 ], [ 3.381, 51.274 ], [ 3.388, 51.273 ], [ 3.408, 51.257 ], [ 3.417, 51.26 ], [ 3.425, 51.254 ], [ 3.427, 51.245 ], [ 3.448, 51.241 ], [ 3.528, 51.246 ], [ 3.515, 51.287 ], [ 3.529, 51.289 ], [ 3.534, 51.283 ], [ 3.538, 51.284 ], [ 3.543, 51.291 ], [ 3.555, 51.29 ], [ 3.563, 51.296 ], [ 3.582, 51.287 ], [ 3.583, 51.292 ], [ 3.588, 51.293 ], [ 3.581, 51.298 ], [ 3.59, 51.306 ], [ 3.615, 51.298 ], [ 3.621, 51.293 ], [ 3.641, 51.288 ], [ 3.658, 51.29 ], [ 3.678, 51.281 ], [ 3.69, 51.281 ], [ 3.694, 51.276 ], [ 3.713, 51.272 ], [ 3.752, 51.27 ], [ 3.762, 51.262 ], [ 3.769, 51.26 ], [ 3.774, 51.264 ], [ 3.795, 51.256 ], [ 3.789, 51.246 ], [ 3.788, 51.226 ], [ 3.79, 51.216 ], [ 3.799, 51.211 ], [ 3.805, 51.21 ], [ 3.804, 51.213 ], [ 3.806, 51.213 ], [ 3.825, 51.209 ], [ 3.836, 51.214 ], [ 3.86, 51.211 ], [ 3.889, 51.223 ], [ 3.893, 51.219 ], [ 3.89, 51.214 ], [ 3.878, 51.208 ], [ 3.886, 51.2 ], [ 3.919, 51.208 ], [ 3.916, 51.215 ], [ 3.929, 51.22 ], [ 3.936, 51.212 ], [ 3.959, 51.216 ], [ 3.964, 51.224 ], [ 3.979, 51.225 ], [ 3.986, 51.234 ], [ 4.015, 51.245 ], [ 4.021, 51.245 ], [ 4.024, 51.241 ], [ 4.037, 51.246 ], [ 4.041, 51.241 ], [ 4.062, 51.245 ], [ 4.071, 51.251 ], [ 4.166, 51.293 ], [ 4.242, 51.354 ], [ 4.262, 51.341 ], [ 4.271, 51.332 ], [ 4.276, 51.31 ], [ 4.281, 51.302 ], [ 4.308, 51.293 ], [ 4.319, 51.286 ], [ 4.317, 51.278 ], [ 4.301, 51.262 ], [ 4.302, 51.258 ], [ 4.331, 51.25 ], [ 4.352, 51.24 ], [ 4.338, 51.23 ], [ 4.341, 51.23 ], [ 4.349, 51.218 ], [ 4.345, 51.216 ], [ 4.357, 51.202 ], [ 4.341, 51.197 ], [ 4.33, 51.186 ], [ 4.328, 51.177 ], [ 4.33, 51.15 ], [ 4.323, 51.131 ], [ 4.308, 51.125 ], [ 4.277, 51.123 ], [ 4.253, 51.116 ], [ 4.243, 51.115 ], [ 4.213, 51.122 ], [ 4.196, 51.109 ], [ 4.175, 51.1 ], [ 4.173, 51.089 ], [ 4.186, 51.085 ], [ 4.189, 51.08 ], [ 4.187, 51.06 ], [ 4.199, 51.056 ], [ 4.187, 51.047 ], [ 4.19, 51.04 ], [ 4.196, 51.04 ], [ 4.213, 51.032 ], [ 4.233, 51.043 ], [ 4.239, 51.041 ], [ 4.241, 51.037 ], [ 4.238, 51.031 ], [ 4.238, 51.02 ], [ 4.221, 51.014 ], [ 4.234, 51.007 ], [ 4.235, 51.003 ], [ 4.22, 50.992 ], [ 4.222, 50.99 ], [ 4.209, 50.988 ], [ 4.204, 50.984 ], [ 4.187, 50.982 ], [ 4.17, 50.989 ], [ 4.157, 50.987 ], [ 4.157, 50.978 ], [ 4.152, 50.974 ], [ 4.15, 50.975 ], [ 4.143, 50.965 ], [ 4.154, 50.957 ], [ 4.158, 50.949 ], [ 4.163, 50.949 ], [ 4.159, 50.945 ], [ 4.163, 50.943 ], [ 4.153, 50.939 ], [ 4.162, 50.932 ], [ 4.158, 50.928 ], [ 4.153, 50.929 ], [ 4.153, 50.923 ], [ 4.145, 50.925 ], [ 4.144, 50.921 ], [ 4.139, 50.917 ], [ 4.137, 50.921 ], [ 4.123, 50.923 ], [ 4.12, 50.926 ], [ 4.113, 50.926 ], [ 4.096, 50.932 ], [ 4.089, 50.926 ], [ 4.092, 50.916 ], [ 4.101, 50.91 ], [ 4.074, 50.899 ], [ 4.082, 50.891 ], [ 4.09, 50.89 ], [ 4.082, 50.878 ], [ 4.085, 50.877 ], [ 4.08, 50.871 ], [ 4.069, 50.87 ], [ 4.064, 50.864 ], [ 4.065, 50.859 ], [ 4.058, 50.854 ], [ 4.059, 50.849 ], [ 4.052, 50.842 ], [ 4.041, 50.838 ], [ 4.048, 50.833 ], [ 4.057, 50.835 ], [ 4.069, 50.834 ], [ 4.069, 50.825 ], [ 4.075, 50.819 ], [ 4.068, 50.8 ], [ 4.053, 50.784 ], [ 4.049, 50.786 ], [ 4.04, 50.783 ], [ 4.041, 50.78 ], [ 4.037, 50.777 ], [ 4.026, 50.782 ], [ 4.015, 50.771 ], [ 4.0, 50.779 ], [ 3.985, 50.766 ], [ 3.969, 50.767 ], [ 3.972, 50.776 ], [ 3.963, 50.776 ], [ 3.96, 50.78 ], [ 3.95, 50.777 ], [ 3.942, 50.773 ], [ 3.931, 50.758 ], [ 3.933, 50.746 ], [ 3.946, 50.75 ], [ 3.948, 50.74 ], [ 3.954, 50.737 ], [ 3.953, 50.733 ], [ 3.945, 50.732 ], [ 3.944, 50.729 ], [ 3.934, 50.731 ], [ 3.92, 50.728 ], [ 3.913, 50.733 ], [ 3.91, 50.729 ], [ 3.906, 50.729 ], [ 3.894, 50.733 ], [ 3.893, 50.735 ], [ 3.899, 50.737 ], [ 3.887, 50.748 ], [ 3.88, 50.751 ], [ 3.866, 50.748 ], [ 3.858, 50.752 ], [ 3.858, 50.748 ], [ 3.852, 50.749 ], [ 3.838, 50.741 ], [ 3.819, 50.745 ], [ 3.815, 50.751 ], [ 3.776, 50.748 ], [ 3.773, 50.754 ], [ 3.761, 50.762 ], [ 3.759, 50.768 ], [ 3.753, 50.772 ], [ 3.759, 50.777 ], [ 3.759, 50.78 ], [ 3.748, 50.774 ], [ 3.742, 50.775 ], [ 3.738, 50.77 ], [ 3.731, 50.771 ], [ 3.716, 50.768 ], [ 3.712, 50.771 ], [ 3.715, 50.773 ], [ 3.709, 50.775 ], [ 3.713, 50.78 ], [ 3.71, 50.782 ], [ 3.697, 50.773 ], [ 3.678, 50.772 ], [ 3.675, 50.769 ], [ 3.677, 50.767 ], [ 3.669, 50.764 ], [ 3.673, 50.759 ], [ 3.667, 50.754 ], [ 3.66, 50.754 ], [ 3.659, 50.747 ], [ 3.642, 50.738 ], [ 3.64, 50.722 ], [ 3.631, 50.721 ], [ 3.62, 50.724 ], [ 3.61, 50.732 ], [ 3.568, 50.728 ], [ 3.559, 50.734 ], [ 3.542, 50.733 ], [ 3.548, 50.747 ], [ 3.539, 50.757 ], [ 3.539, 50.764 ], [ 3.509, 50.759 ] ] ] } },
{ "type": "Feature", "properties": { "nis": "50000" }, "geometry": { "type": "MultiPolygon", "coordinates": [ [ [ [ 3.288, 50.526 ], [ 3.285, 50.535 ], [ 3.279, 50.539 ], [ 3.282, 50.544 ], [ 3.278, 50.552 ], [ 3.283, 50.552 ], [ 3.276, 50.559 ], [ 3.285, 50.562 ], [ 3.278, 50.564 ], [ 3.279, 50.573 ], [ 3.282, 50.575 ], [ 3.276, 50.582 ], [ 3.28, 50.596 ], [ 3.275, 50.597 ], [ 3.276, 50.6 ], [ 3.274, 50.601 ], [ 3.275, 50.605 ], [ 3.271, 50.606 ], [ 3.27, 50.612 ], [ 3.255, 50.623 ], [ 3.259, 50.63 ], [ 3.244, 50.641 ], [ 3.25, 50.647 ], [ 3.24, 50.659 ], [ 3.242, 50.662 ], [ 3.241, 50.669 ], [ 3.265, 50.677 ], [ 3.253, 50.69 ], [ 3.262, 50.691 ], [ 3.259, 50.696 ], [ 3.261, 50.701 ], [ 3.251, 50.705 ], [ 3.252, 50.707 ], [ 3.245, 50.713 ], [ 3.227, 50.713 ], [ 3.22, 50.71 ], [ 3.211, 50.713 ], [ 3.206, 50.712 ], [ 3.21, 50.717 ], [ 3.191, 50.726 ], [ 3.2, 50.735 ], [ 3.188, 50.74 ], [ 3.186, 50.747 ], [ 3.178, 50.756 ], [ 3.182, 50.756 ], [ 3.185, 50.759 ], [ 3.191, 50.756 ], [ 3.221, 50.766 ], [ 3.228, 50.765 ], [ 3.241, 50.756 ], [ 3.248, 50.757 ], [ 3.265, 50.751 ], [ 3.284, 50.752 ], [ 3.292, 50.749 ], [ 3.306, 50.755 ], [ 3.324, 50.739 ], [ 3.323, 50.735 ], [ 3.329, 50.731 ], [ 3.324, 50.722 ], [ 3.336, 50.717 ], [ 3.349, 50.716 ], [ 3.361, 50.71 ], [ 3.361, 50.714 ], [ 3.366, 50.718 ], [ 3.364, 50.719 ], [ 3.369, 50.726 ], [ 3.395, 50.729 ], [ 3.393, 50.732 ], [ 3.4, 50.732 ], [ 3.399, 50.736 ], [ 3.404, 50.739 ], [ 3.402, 50.74 ], [ 3.405, 50.746 ], [ 3.427, 50.747 ], [ 3.435, 50.75 ], [ 3.432, 50.757 ], [ 3.437, 50.754 ], [ 3.439, 50.755 ], [ 3.435, 50.757 ], [ 3.439, 50.759 ], [ 3.454, 50.759 ], [ 3.453, 50.76 ], [ 3.457, 50.764 ], [ 3.454, 50.765 ], [ 3.455, 50.771 ], [ 3.46, 50.762 ], [ 3.467, 50.765 ], [ 3.481, 50.761 ], [ 3.478, 50.759 ], [ 3.493, 50.758 ], [ 3.539, 50.764 ], [ 3.539, 50.757 ], [ 3.548, 50.747 ], [ 3.542, 50.733 ], [ 3.559, 50.734 ], [ 3.568, 50.728 ], [ 3.61, 50.732 ], [ 3.62, 50.724 ], [ 3.631, 50.721 ], [ 3.64, 50.722 ], [ 3.642, 50.738 ], [ 3.659, 50.747 ], [ 3.66, 50.754 ], [ 3.667, 50.754 ], [ 3.673, 50.759 ], [ 3.669, 50.764 ], [ 3.677, 50.767 ], [ 3.675, 50.769 ], [ 3.678, 50.772 ], [ 3.697, 50.773 ], [ 3.71, 50.782 ], [ 3.713, 50.78 ], [ 3.709, 50.775 ], [ 3.715, 50.773 ], [ 3.712, 50.771 ], [ 3.716, 50.768 ], [ 3.731, 50.771 ], [ 3.738, 50.77 ], [ 3.742, 50.775 ], [ 3.748, 50.774 ], [ 3.759, 50.78 ], [ 3.759, 50.777 ], [ 3.753, 50.772 ], [ 3.759, 50.768 ], [ 3.761, 50.762 ], [ 3.773, 50.754 ], [ 3.776, 50.748 ], [ 3.815, 50.751 ], [ 3.819, 50.745 ], [ 3.838, 50.741 ], [ 3.852, 50.749 ], [ 3.858, 50.748 ], [ 3.858, 50.752 ], [ 3.866, 50.748 ], [ 3.88, 50.751 ], [ 3.886, 50.749 ], [ 3.899, 50.737 ], [ 3.893, 50.735 ], [ 3.896, 50.733 ], [ 3.894, 50.73 ], [ 3.897, 50.729 ], [ 3.889, 50.713 ], [ 3.897, 50.709 ], [ 3.902, 50.711 ], [ 3.904, 50.705 ], [ 3.913, 50.699 ], [ 3.91, 50.693 ], [ 3.912, 50.691 ], [ 3.924, 50.692 ], [ 3.927, 50.695 ], [ 3.931, 50.689 ], [ 3.971, 50.691 ], [ 3.99, 50.688 ], [ 4.01, 50.699 ], [ 4.017, 50.694 ], [ 4.032, 50.694 ], [ 4.052, 50.702 ], [ 4.059, 50.694 ], [ 4.072, 50.712 ], [ 4.086, 50.714 ], [ 4.091, 50.707 ], [ 4.099, 50.706 ], [ 4.111, 50.71 ], [ 4.113, 50.705 ], [ 4.106, 50.706 ], [ 4.101, 50.701 ], [ 4.098, 50.704 ], [ 4.092, 50.701 ], [ 4.095, 50.695 ], [ 4.1, 50.692 ], [ 4.095, 50.68 ], [ 4.097, 50.676 ], [ 4.091, 50.669 ], [ 4.095, 50.666 ], [ 4.097, 50.668 ], [ 4.1, 50.663 ], [ 4.098, 50.652 ], [ 4.093, 50.654 ], [ 4.091, 50.654 ], [ 4.098, 50.647 ], [ 4.1, 50.639 ], [ 4.106, 50.636 ], [ 4.106, 50.632 ], [ 4.117, 50.635 ], [ 4.133, 50.629 ], [ 4.141, 50.632 ], [ 4.175, 50.662 ], [ 4.182, 50.662 ], [ 4.204, 50.647 ], [ 4.197, 50.635 ], [ 4.2, 50.631 ], [ 4.199, 50.625 ], [ 4.231, 50.625 ], [ 4.245, 50.621 ], [ 4.254, 50.616 ], [ 4.246, 50.612 ], [ 4.252, 50.601 ], [ 4.247, 50.597 ], [ 4.261, 50.593 ], [ 4.275, 50.596 ], [ 4.275, 50.592 ], [ 4.28, 50.592 ], [ 4.285, 50.585 ], [ 4.299, 50.577 ], [ 4.297, 50.576 ], [ 4.301, 50.573 ], [ 4.302, 50.568 ], [ 4.334, 50.569 ], [ 4.336, 50.567 ], [ 4.331, 50.56 ], [ 4.335, 50.555 ], [ 4.331, 50.551 ], [ 4.325, 50.549 ], [ 4.331, 50.543 ], [ 4.338, 50.544 ], [ 4.345, 50.549 ], [ 4.342, 50.553 ], [ 4.357, 50.556 ], [ 4.359, 50.559 ], [ 4.357, 50.562 ], [ 4.359, 50.563 ], [ 4.377, 50.559 ], [ 4.382, 50.564 ], [ 4.4, 50.562 ], [ 4.411, 50.565 ], [ 4.417, 50.565 ], [ 4.422, 50.558 ], [ 4.444, 50.56 ], [ 4.45, 50.554 ], [ 4.47, 50.559 ], [ 4.472, 50.554 ], [ 4.475, 50.555 ], [ 4.477, 50.551 ], [ 4.466, 50.546 ], [ 4.468, 50.538 ], [ 4.463, 50.532 ], [ 4.467, 50.528 ], [ 4.475, 50.536 ], [ 4.484, 50.534 ], [ 4.49, 50.538 ], [ 4.504, 50.54 ], [ 4.503, 50.528 ], [ 4.513, 50.525 ], [ 4.577, 50.542 ], [ 4.58, 50.53 ], [ 4.574, 50.521 ], [ 4.566, 50.52 ], [ 4.563, 50.508 ], [ 4.557, 50.506 ], [ 4.559, 50.5 ], [ 4.564, 50.497 ], [ 4.56, 50.493 ], [ 4.562, 50.489 ], [ 4.579, 50.5 ], [ 4.585, 50.496 ], [ 4.594, 50.499 ], [ 4.595, 50.498 ], [ 4.586, 50.494 ], [ 4.591, 50.491 ], [ 4.587, 50.49 ], [ 4.601, 50.477 ], [ 4.595, 50.467 ], [ 4.587, 50.463 ], [ 4.589, 50.457 ], [ 4.585, 50.454 ], [ 4.573, 50.454 ], [ 4.584, 50.446 ], [ 4.582, 50.442 ], [ 4.573, 50.442 ], [ 4.576, 50.439 ], [ 4.584, 50.438 ], [ 4.582, 50.432 ], [ 4.591, 50.433 ], [ 4.595, 50.429 ], [ 4.606, 50.426 ], [ 4.613, 50.43 ], [ 4.617, 50.425 ], [ 4.611, 50.422 ], [ 4.609, 50.41 ], [ 4.604, 50.408 ], [ 4.604, 50.403 ], [ 4.594, 50.402 ], [ 4.593, 50.398 ], [ 4.584, 50.398 ], [ 4.592, 50.391 ], [ 4.605, 50.387 ], [ 4.606, 50.384 ], [ 4.592, 50.38 ], [ 4.595, 50.377 ], [ 4.594, 50.372 ], [ 4.586, 50.367 ], [ 4.582, 50.358 ], [ 4.589, 50.35 ], [ 4.582, 50.342 ], [ 4.594, 50.34 ], [ 4.594, 50.327 ], [ 4.589, 50.324 ], [ 4.591, 50.322 ], [ 4.566, 50.323 ], [ 4.52, 50.315 ], [ 4.518, 50.318 ], [ 4.505, 50.322 ], [ 4.508, 50.325 ], [ 4.504, 50.329 ], [ 4.475, 50.328 ], [ 4.471, 50.319 ], [ 4.464, 50.314 ], [ 4.466, 50.31 ], [ 4.457, 50.305 ], [ 4.432, 50.31 ], [ 4.42, 50.306 ], [ 4.402, 50.311 ], [ 4.401, 50.308 ], [ 4.405, 50.305 ], [ 4.399, 50.297 ], [ 4.387, 50.29 ], [ 4.369, 50.292 ], [ 4.369, 50.285 ], [ 4.362, 50.283 ], [ 4.362, 50.279 ], [ 4.358, 50.275 ], [ 4.351, 50.278 ], [ 4.341, 50.279 ], [ 4.339, 50.277 ], [ 4.338, 50.278 ], [ 4.333, 50.276 ], [ 4.328, 50.278 ], [ 4.327, 50.273 ], [ 4.316, 50.273 ], [ 4.32, 50.269 ], [ 4.315, 50.267 ], [ 4.31, 50.27 ], [ 4.304, 50.264 ], [ 4.296, 50.263 ], [ 4.287, 50.256 ], [ 4.29, 50.253 ], [ 4.286, 50.25 ], [ 4.293, 50.25 ], [ 4.299, 50.244 ], [ 4.308, 50.242 ], [ 4.309, 50.238 ], [ 4.318, 50.237 ], [ 4.32, 50.235 ], [ 4.345, 50.227 ], [ 4.367, 50.243 ], [ 4.379, 50.239 ], [ 4.387, 50.239 ], [ 4.389, 50.234 ], [ 4.401, 50.233 ], [ 4.4, 50.226 ], [ 4.396, 50.226 ], [ 4.397, 50.224 ], [ 4.394, 50.221 ], [ 4.398, 50.218 ], [ 4.395, 50.216 ], [ 4.399, 50.213 ], [ 4.391, 50.212 ], [ 4.394, 50.204 ], [ 4.389, 50.2 ], [ 4.393, 50.198 ], [ 4.391, 50.194 ], [ 4.396, 50.193 ], [ 4.397, 50.186 ], [ 4.392, 50.181 ], [ 4.362, 50.171 ], [ 4.365, 50.157 ], [ 4.376, 50.157 ], [ 4.376, 50.153 ], [ 4.385, 50.15 ], [ 4.389, 50.144 ], [ 4.384, 50.136 ], [ 4.401, 50.123 ], [ 4.386, 50.109 ], [ 4.394, 50.081 ], [ 4.39, 50.067 ], [ 4.396, 50.058 ], [ 4.39, 50.051 ], [ 4.394, 50.048 ], [ 4.4, 50.051 ], [ 4.401, 50.048 ], [ 4.406, 50.05 ], [ 4.41, 50.045 ], [ 4.407, 50.037 ], [ 4.409, 50.037 ], [ 4.415, 50.011 ], [ 4.414, 49.999 ], [ 4.424, 49.983 ], [ 4.435, 49.973 ], [ 4.445, 49.953 ], [ 4.433, 49.942 ], [ 4.405, 49.949 ], [ 4.391, 49.948 ], [ 4.381, 49.954 ], [ 4.371, 49.951 ], [ 4.351, 49.952 ], [ 4.336, 49.963 ], [ 4.318, 49.965 ], [ 4.31, 49.97 ], [ 4.29, 49.964 ], [ 4.269, 49.965 ], [ 4.242, 49.962 ], [ 4.234, 49.958 ], [ 4.206, 49.958 ], [ 4.197, 49.955 ], [ 4.195, 49.956 ], [ 4.198, 49.965 ], [ 4.197, 49.968 ], [ 4.178, 49.972 ], [ 4.173, 49.977 ], [ 4.152, 49.975 ], [ 4.142, 49.978 ], [ 4.147, 49.984 ], [ 4.155, 49.985 ], [ 4.163, 49.995 ], [ 4.161, 50.001 ], [ 4.155, 50.0 ], [ 4.145, 50.004 ], [ 4.147, 50.007 ], [ 4.142, 50.006 ], [ 4.145, 50.008 ], [ 4.137, 50.013 ], [ 4.136, 50.02 ], [ 4.162, 50.049 ], [ 4.174, 50.045 ], [ 4.19, 50.05 ], [ 4.194, 50.049 ], [ 4.199, 50.057 ], [ 4.224, 50.064 ], [ 4.231, 50.069 ], [ 4.231, 50.073 ], [ 4.225, 50.086 ], [ 4.217, 50.088 ], [ 4.213, 50.095 ], [ 4.202, 50.1 ], [ 4.207, 50.105 ], [ 4.197, 50.106 ], [ 4.204, 50.116 ], [ 4.202, 50.124 ], [ 4.198, 50.127 ], [ 4.201, 50.133 ], [ 4.199, 50.134 ], [ 4.176, 50.133 ], [ 4.157, 50.135 ], [ 4.154, 50.128 ], [ 4.144, 50.129 ], [ 4.127, 50.136 ], [ 4.136, 50.143 ], [ 4.138, 50.152 ], [ 4.155, 50.163 ], [ 4.156, 50.172 ], [ 4.148, 50.174 ], [ 4.156, 50.183 ], [ 4.158, 50.189 ], [ 4.156, 50.192 ], [ 4.16, 50.194 ], [ 4.16, 50.202 ], [ 4.152, 50.207 ], [ 4.15, 50.214 ], [ 4.173, 50.217 ], [ 4.17, 50.218 ], [ 4.175, 50.22 ], [ 4.182, 50.232 ], [ 4.194, 50.24 ], [ 4.203, 50.24 ], [ 4.22, 50.252 ], [ 4.221, 50.259 ], [ 4.216, 50.262 ], [ 4.208, 50.273 ], [ 4.177, 50.275 ], [ 4.175, 50.278 ], [ 4.176, 50.284 ], [ 4.169, 50.285 ], [ 4.17, 50.288 ], [ 4.163, 50.289 ], [ 4.161, 50.285 ], [ 4.153, 50.285 ], [ 4.156, 50.28 ], [ 4.149, 50.276 ], [ 4.163, 50.272 ], [ 4.169, 50.267 ], [ 4.168, 50.259 ], [ 4.155, 50.256 ], [ 4.136, 50.257 ], [ 4.139, 50.263 ], [ 4.134, 50.266 ], [ 4.136, 50.275 ], [ 4.124, 50.273 ], [ 4.122, 50.278 ], [ 4.125, 50.281 ], [ 4.126, 50.288 ], [ 4.118, 50.303 ], [ 4.11, 50.302 ], [ 4.097, 50.314 ], [ 4.079, 50.31 ], [ 4.078, 50.321 ], [ 4.065, 50.331 ], [ 4.055, 50.333 ], [ 4.054, 50.339 ], [ 4.044, 50.339 ], [ 4.036, 50.344 ], [ 4.032, 50.353 ], [ 4.024, 50.359 ], [ 4.018, 50.357 ], [ 4.015, 50.354 ], [ 4.018, 50.352 ], [ 3.994, 50.349 ], [ 3.986, 50.342 ], [ 3.973, 50.348 ], [ 3.971, 50.343 ], [ 3.966, 50.341 ], [ 3.968, 50.35 ], [ 3.901, 50.327 ], [ 3.896, 50.329 ], [ 3.886, 50.327 ], [ 3.89, 50.33 ], [ 3.89, 50.337 ], [ 3.886, 50.337 ], [ 3.888, 50.338 ], [ 3.887, 50.341 ], [ 3.876, 50.338 ], [ 3.862, 50.344 ], [ 3.857, 50.342 ], [ 3.856, 50.349 ], [ 3.847, 50.353 ], [ 3.824, 50.353 ], [ 3.823, 50.347 ], [ 3.815, 50.345 ], [ 3.812, 50.345 ], [ 3.815, 50.35 ], [ 3.814, 50.353 ], [ 3.807, 50.355 ], [ 3.799, 50.351 ], [ 3.767, 50.353 ], [ 3.763, 50.348 ], [ 3.747, 50.351 ], [ 3.747, 50.348 ], [ 3.742, 50.349 ], [ 3.734, 50.343 ], [ 3.738, 50.341 ], [ 3.733, 50.338 ], [ 3.737, 50.336 ], [ 3.734, 50.335 ], [ 3.734, 50.33 ], [ 3.73, 50.33 ], [ 3.729, 50.325 ], [ 3.732, 50.322 ], [ 3.727, 50.315 ], [ 3.732, 50.312 ], [ 3.729, 50.309 ], [ 3.721, 50.311 ], [ 3.72, 50.316 ], [ 3.71, 50.32 ], [ 3.71, 50.314 ], [ 3.715, 50.313 ], [ 3.717, 50.309 ], [ 3.716, 50.307 ], [ 3.72, 50.305 ], [ 3.71, 50.303 ], [ 3.702, 50.311 ], [ 3.694, 50.313 ], [ 3.695, 50.317 ], [ 3.684, 50.32 ], [ 3.693, 50.319 ], [ 3.694, 50.322 ], [ 3.675, 50.333 ], [ 3.673, 50.335 ], [ 3.677, 50.34 ], [ 3.665, 50.348 ], [ 3.667, 50.351 ], [ 3.667, 50.361 ], [ 3.665, 50.366 ], [ 3.657, 50.369 ], [ 3.658, 50.374 ], [ 3.666, 50.379 ], [ 3.669, 50.387 ], [ 3.674, 50.389 ], [ 3.672, 50.394 ], [ 3.675, 50.402 ], [ 3.67, 50.417 ], [ 3.672, 50.422 ], [ 3.669, 50.423 ], [ 3.67, 50.437 ], [ 3.658, 50.447 ], [ 3.664, 50.452 ], [ 3.663, 50.456 ], [ 3.654, 50.463 ], [ 3.643, 50.463 ], [ 3.635, 50.471 ], [ 3.63, 50.479 ], [ 3.633, 50.48 ], [ 3.619, 50.487 ], [ 3.608, 50.497 ], [ 3.585, 50.491 ], [ 3.568, 50.501 ], [ 3.539, 50.494 ], [ 3.523, 50.495 ], [ 3.501, 50.487 ], [ 3.496, 50.499 ], [ 3.504, 50.507 ], [ 3.516, 50.513 ], [ 3.52, 50.524 ], [ 3.504, 50.53 ], [ 3.491, 50.528 ], [ 3.474, 50.534 ], [ 3.454, 50.519 ], [ 3.454, 50.515 ], [ 3.449, 50.507 ], [ 3.439, 50.507 ], [ 3.438, 50.511 ], [ 3.429, 50.505 ], [ 3.397, 50.498 ], [ 3.396, 50.496 ], [ 3.392, 50.499 ], [ 3.377, 50.491 ], [ 3.371, 50.494 ], [ 3.362, 50.504 ], [ 3.337, 50.509 ], [ 3.33, 50.508 ], [ 3.321, 50.519 ], [ 3.288, 50.526 ] ] ], [ [ [ 2.911, 50.694 ], [ 2.906, 50.692 ], [ 2.899, 50.694 ], [ 2.885, 50.706 ], [ 2.88, 50.703 ], [ 2.87, 50.703 ], [ 2.863, 50.708 ], [ 2.87, 50.713 ], [ 2.86, 50.722 ], [ 2.853, 50.724 ], [ 2.842, 50.736 ], [ 2.853, 50.74 ], [ 2.842, 50.751 ], [ 2.855, 50.758 ], [ 2.87, 50.76 ], [ 2.871, 50.755 ], [ 2.878, 50.754 ], [ 2.876, 50.761 ], [ 2.878, 50.762 ], [ 2.888, 50.753 ], [ 2.894, 50.753 ], [ 2.923, 50.757 ], [ 2.918, 50.761 ], [ 2.919, 50.764 ], [ 2.945, 50.772 ], [ 2.96, 50.774 ], [ 2.96, 50.779 ], [ 2.958, 50.782 ], [ 2.947, 50.791 ], [ 2.937, 50.794 ], [ 2.96, 50.798 ], [ 2.965, 50.802 ], [ 2.981, 50.804 ], [ 3.0, 50.811 ], [ 3.012, 50.807 ], [ 3.015, 50.803 ], [ 3.009, 50.795 ], [ 3.015, 50.79 ], [ 3.013, 50.784 ], [ 3.03, 50.779 ], [ 3.014, 50.774 ], [ 3.012, 50.769 ], [ 2.993, 50.76 ], [ 2.981, 50.757 ], [ 2.973, 50.751 ], [ 2.963, 50.75 ], [ 2.962, 50.753 ], [ 2.956, 50.754 ], [ 2.939, 50.745 ], [ 2.938, 50.739 ], [ 2.944, 50.731 ], [ 2.932, 50.728 ], [ 2.929, 50.723 ], [ 2.931, 50.719 ], [ 2.93, 50.711 ], [ 2.924, 50.704 ], [ 2.909, 50.702 ], [ 2.911, 50.694 ] ] ] ] } },
{ "type": "Feature", "properties": { "nis": "60000" }, "geometry": { "type": "MultiPolygon", "coordinates": [ [ [ [ 5.18, 50.476 ], [ 5.172, 50.469 ], [ 5.164, 50.468 ], [ 5.164, 50.47 ], [ 5.156, 50.474 ], [ 5.156, 50.478 ], [ 5.149, 50.482 ], [ 5.16, 50.487 ], [ 5.157, 50.489 ], [ 5.14, 50.487 ], [ 5.133, 50.49 ], [ 5.133, 50.498 ], [ 5.129, 50.503 ], [ 5.141, 50.506 ], [ 5.145, 50.509 ], [ 5.142, 50.512 ], [ 5.115, 50.504 ], [ 5.113, 50.507 ], [ 5.101, 50.508 ], [ 5.101, 50.513 ], [ 5.095, 50.515 ], [ 5.097, 50.517 ], [ 5.094, 50.519 ], [ 5.097, 50.52 ], [ 5.09, 50.526 ], [ 5.095, 50.527 ], [ 5.092, 50.529 ], [ 5.034, 50.532 ], [ 5.038, 50.537 ], [ 5.054, 50.541 ], [ 5.046, 50.551 ], [ 5.051, 50.555 ], [ 5.044, 50.558 ], [ 5.049, 50.561 ], [ 5.034, 50.571 ], [ 5.03, 50.58 ], [ 5.034, 50.582 ], [ 5.028, 50.585 ], [ 5.029, 50.589 ], [ 4.999, 50.6 ], [ 5.0, 50.606 ], [ 5.003, 50.607 ], [ 5.0, 50.61 ], [ 4.979, 50.619 ], [ 4.988, 50.626 ], [ 4.982, 50.635 ], [ 4.99, 50.637 ], [ 4.983, 50.642 ], [ 4.988, 50.645 ], [ 4.989, 50.653 ], [ 5.003, 50.665 ], [ 4.997, 50.672 ], [ 4.999, 50.675 ], [ 4.997, 50.684 ], [ 5.0, 50.686 ], [ 5.001, 50.694 ], [ 5.017, 50.702 ], [ 5.01, 50.707 ], [ 5.01, 50.712 ], [ 4.994, 50.718 ], [ 4.998, 50.721 ], [ 4.993, 50.724 ], [ 4.998, 50.728 ], [ 5.008, 50.729 ], [ 5.009, 50.733 ], [ 5.013, 50.731 ], [ 5.017, 50.733 ], [ 5.016, 50.74 ], [ 5.02, 50.751 ], [ 5.048, 50.739 ], [ 5.042, 50.734 ], [ 5.047, 50.731 ], [ 5.044, 50.723 ], [ 5.056, 50.716 ], [ 5.065, 50.715 ], [ 5.063, 50.714 ], [ 5.07, 50.706 ], [ 5.075, 50.709 ], [ 5.096, 50.703 ], [ 5.105, 50.71 ], [ 5.119, 50.708 ], [ 5.149, 50.695 ], [ 5.156, 50.698 ], [ 5.165, 50.696 ], [ 5.181, 50.705 ], [ 5.175, 50.715 ], [ 5.168, 50.716 ], [ 5.17, 50.722 ], [ 5.175, 50.721 ], [ 5.177, 50.723 ], [ 5.194, 50.717 ], [ 5.207, 50.721 ], [ 5.224, 50.721 ], [ 5.228, 50.718 ], [ 5.232, 50.719 ], [ 5.237, 50.727 ], [ 5.241, 50.717 ], [ 5.257, 50.715 ], [ 5.265, 50.718 ], [ 5.264, 50.72 ], [ 5.27, 50.723 ], [ 5.27, 50.726 ], [ 5.276, 50.729 ], [ 5.286, 50.724 ], [ 5.297, 50.724 ], [ 5.304, 50.716 ], [ 5.31, 50.718 ], [ 5.308, 50.724 ], [ 5.314, 50.729 ], [ 5.334, 50.735 ], [ 5.35, 50.746 ], [ 5.37, 50.747 ], [ 5.376, 50.742 ], [ 5.39, 50.748 ], [ 5.394, 50.735 ], [ 5.402, 50.735 ], [ 5.402, 50.728 ], [ 5.421, 50.719 ], [ 5.428, 50.723 ], [ 5.432, 50.718 ], [ 5.436, 50.722 ], [ 5.455, 50.722 ], [ 5.452, 50.723 ], [ 5.455, 50.727 ], [ 5.463, 50.731 ], [ 5.46, 50.736 ], [ 5.462, 50.739 ], [ 5.467, 50.739 ], [ 5.468, 50.737 ], [ 5.476, 50.734 ], [ 5.474, 50.726 ], [ 5.479, 50.724 ], [ 5.491, 50.727 ], [ 5.524, 50.742 ], [ 5.519, 50.747 ], [ 5.523, 50.759 ], [ 5.548, 50.759 ], [ 5.553, 50.764 ], [ 5.57, 50.764 ], [ 5.573, 50.771 ], [ 5.58, 50.773 ], [ 5.592, 50.77 ], [ 5.591, 50.773 ], [ 5.603, 50.777 ], [ 5.61, 50.775 ], [ 5.606, 50.779 ], [ 5.616, 50.784 ], [ 5.627, 50.782 ], [ 5.638, 50.787 ], [ 5.646, 50.793 ], [ 5.653, 50.805 ], [ 5.668, 50.805 ], [ 5.673, 50.808 ], [ 5.674, 50.805 ], [ 5.68, 50.806 ], [ 5.686, 50.804 ], [ 5.688, 50.812 ], [ 5.692, 50.812 ], [ 5.694, 50.812 ], [ 5.694, 50.797 ], [ 5.699, 50.78 ], [ 5.682, 50.759 ], [ 5.683, 50.755 ], [ 5.691, 50.751 ], [ 5.722, 50.746 ], [ 5.725, 50.746 ], [ 5.727, 50.752 ], [ 5.737, 50.755 ], [ 5.747, 50.752 ], [ 5.745, 50.749 ], [ 5.749, 50.745 ], [ 5.771, 50.751 ], [ 5.789, 50.744 ], [ 5.799, 50.736 ], [ 5.802, 50.736 ], [ 5.8, 50.732 ], [ 5.811, 50.723 ], [ 5.813, 50.715 ], [ 5.823, 50.714 ], [ 5.861, 50.717 ], [ 5.883, 50.71 ], [ 5.888, 50.717 ], [ 5.911, 50.735 ], [ 5.907, 50.742 ], [ 5.895, 50.746 ], [ 5.89, 50.754 ], [ 5.892, 50.755 ], [ 5.902, 50.751 ], [ 5.905, 50.755 ], [ 5.914, 50.756 ], [ 5.916, 50.75 ], [ 5.931, 50.757 ], [ 5.961, 50.762 ], [ 5.973, 50.76 ], [ 5.974, 50.755 ], [ 5.983, 50.753 ], [ 6.02, 50.755 ], [ 6.029, 50.75 ], [ 6.03, 50.75 ], [ 6.04, 50.746 ], [ 6.04, 50.737 ], [ 6.033, 50.731 ], [ 6.033, 50.726 ], [ 6.038, 50.725 ], [ 6.037, 50.72 ], [ 6.04, 50.718 ], [ 6.044, 50.728 ], [ 6.073, 50.721 ], [ 6.092, 50.723 ], [ 6.095, 50.72 ], [ 6.098, 50.723 ], [ 6.111, 50.724 ], [ 6.119, 50.72 ], [ 6.125, 50.711 ], [ 6.123, 50.707 ], [ 6.144, 50.689 ], [ 6.144, 50.682 ], [ 6.163, 50.671 ], [ 6.162, 50.67 ], [ 6.166, 50.662 ], [ 6.181, 50.653 ], [ 6.184, 50.648 ], [ 6.184, 50.647 ], [ 6.183, 50.647 ], [ 6.167, 50.644 ], [ 6.183, 50.632 ], [ 6.176, 50.627 ], [ 6.182, 50.624 ], [ 6.194, 50.634 ], [ 6.2, 50.631 ], [ 6.217, 50.632 ], [ 6.235, 50.626 ], [ 6.261, 50.628 ], [ 6.269, 50.625 ], [ 6.269, 50.619 ], [ 6.26, 50.61 ], [ 6.248, 50.604 ], [ 6.25, 50.598 ], [ 6.248, 50.597 ], [ 6.241, 50.587 ], [ 6.225, 50.59 ], [ 6.22, 50.582 ], [ 6.206, 50.576 ], [ 6.203, 50.569 ], [ 6.174, 50.557 ], [ 6.179, 50.554 ], [ 6.178, 50.542 ], [ 6.197, 50.536 ], [ 6.198, 50.539 ], [ 6.197, 50.53 ], [ 6.196, 50.531 ], [ 6.187, 50.527 ], [ 6.192, 50.521 ], [ 6.206, 50.521 ], [ 6.207, 50.523 ], [ 6.208, 50.517 ], [ 6.213, 50.516 ], [ 6.209, 50.515 ], [ 6.21, 50.513 ], [ 6.22, 50.505 ], [ 6.223, 50.501 ], [ 6.22, 50.499 ], [ 6.227, 50.494 ], [ 6.252, 50.504 ], [ 6.255, 50.499 ], [ 6.262, 50.499 ], [ 6.27, 50.505 ], [ 6.298, 50.497 ], [ 6.309, 50.501 ], [ 6.323, 50.494 ], [ 6.333, 50.492 ], [ 6.335, 50.489 ], [ 6.351, 50.488 ], [ 6.342, 50.483 ], [ 6.341, 50.477 ], [ 6.337, 50.475 ], [ 6.344, 50.469 ], [ 6.34, 50.462 ], [ 6.363, 50.454 ], [ 6.372, 50.456 ], [ 6.377, 50.439 ], [ 6.376, 50.431 ], [ 6.367, 50.42 ], [ 6.37, 50.409 ], [ 6.366, 50.402 ], [ 6.358, 50.396 ], [ 6.357, 50.391 ], [ 6.343, 50.38 ], [ 6.361, 50.371 ], [ 6.37, 50.361 ], [ 6.367, 50.359 ], [ 6.383, 50.354 ], [ 6.398, 50.346 ], [ 6.401, 50.338 ], [ 6.408, 50.335 ], [ 6.406, 50.323 ], [ 6.382, 50.322 ], [ 6.375, 50.314 ], [ 6.359, 50.313 ], [ 6.358, 50.31 ], [ 6.364, 50.305 ], [ 6.351, 50.311 ], [ 6.348, 50.315 ], [ 6.34, 50.316 ], [ 6.343, 50.318 ], [ 6.335, 50.316 ], [ 6.333, 50.323 ], [ 6.327, 50.325 ], [ 6.318, 50.319 ], [ 6.317, 50.321 ], [ 6.306, 50.32 ], [ 6.309, 50.312 ], [ 6.296, 50.309 ], [ 6.298, 50.302 ], [ 6.291, 50.298 ], [ 6.292, 50.296 ], [ 6.286, 50.294 ], [ 6.289, 50.291 ], [ 6.285, 50.285 ], [ 6.291, 50.277 ], [ 6.278, 50.266 ], [ 6.272, 50.268 ], [ 6.262, 50.265 ], [ 6.259, 50.268 ], [ 6.246, 50.262 ], [ 6.236, 50.262 ], [ 6.224, 50.259 ], [ 6.218, 50.254 ], [ 6.216, 50.257 ], [ 6.205, 50.251 ], [ 6.207, 50.249 ], [ 6.196, 50.237 ], [ 6.176, 50.235 ], [ 6.174, 50.232 ], [ 6.178, 50.229 ], [ 6.177, 50.226 ], [ 6.168, 50.224 ], [ 6.166, 50.22 ], [ 6.178, 50.217 ], [ 6.183, 50.208 ], [ 6.189, 50.205 ], [ 6.185, 50.203 ], [ 6.187, 50.196 ], [ 6.184, 50.192 ], [ 6.19, 50.188 ], [ 6.186, 50.184 ], [ 6.193, 50.182 ], [ 6.184, 50.178 ], [ 6.178, 50.18 ], [ 6.163, 50.178 ], [ 6.16, 50.172 ], [ 6.146, 50.177 ], [ 6.144, 50.173 ], [ 6.148, 50.17 ], [ 6.14, 50.168 ], [ 6.148, 50.16 ], [ 6.143, 50.156 ], [ 6.132, 50.155 ], [ 6.132, 50.153 ], [ 6.14, 50.148 ], [ 6.149, 50.152 ], [ 6.153, 50.15 ], [ 6.155, 50.142 ], [ 6.148, 50.136 ], [ 6.138, 50.135 ], [ 6.138, 50.13 ], [ 6.132, 50.13 ], [ 6.121, 50.136 ], [ 6.112, 50.136 ], [ 6.118, 50.147 ], [ 6.126, 50.15 ], [ 6.115, 50.155 ], [ 6.12, 50.163 ], [ 6.102, 50.171 ], [ 6.079, 50.171 ], [ 6.079, 50.157 ], [ 6.072, 50.157 ], [ 6.064, 50.153 ], [ 6.039, 50.16 ], [ 6.03, 50.166 ], [ 6.026, 50.183 ], [ 6.02, 50.192 ], [ 6.033, 50.201 ], [ 6.034, 50.206 ], [ 6.027, 50.21 ], [ 6.021, 50.206 ], [ 6.012, 50.206 ], [ 6.015, 50.214 ], [ 6.012, 50.218 ], [ 6.013, 50.226 ], [ 6.009, 50.238 ], [ 6.017, 50.252 ], [ 6.011, 50.27 ], [ 6.017, 50.3 ], [ 6.014, 50.302 ], [ 6.014, 50.311 ], [ 6.011, 50.313 ], [ 5.983, 50.32 ], [ 5.979, 50.327 ], [ 5.98, 50.33 ], [ 5.961, 50.327 ], [ 5.954, 50.334 ], [ 5.937, 50.338 ], [ 5.933, 50.334 ], [ 5.924, 50.332 ], [ 5.901, 50.339 ], [ 5.889, 50.339 ], [ 5.862, 50.348 ], [ 5.851, 50.335 ], [ 5.85, 50.327 ], [ 5.863, 50.325 ], [ 5.867, 50.319 ], [ 5.869, 50.319 ], [ 5.869, 50.314 ], [ 5.863, 50.304 ], [ 5.855, 50.3 ], [ 5.859, 50.296 ], [ 5.851, 50.292 ], [ 5.851, 50.289 ], [ 5.846, 50.288 ], [ 5.845, 50.281 ], [ 5.865, 50.283 ], [ 5.881, 50.28 ], [ 5.877, 50.276 ], [ 5.874, 50.277 ], [ 5.871, 50.268 ], [ 5.862, 50.268 ], [ 5.84, 50.261 ], [ 5.827, 50.267 ], [ 5.81, 50.264 ], [ 5.808, 50.254 ], [ 5.806, 50.261 ], [ 5.802, 50.261 ], [ 5.8, 50.265 ], [ 5.782, 50.263 ], [ 5.764, 50.268 ], [ 5.751, 50.266 ], [ 5.745, 50.261 ], [ 5.724, 50.261 ], [ 5.717, 50.267 ], [ 5.731, 50.275 ], [ 5.735, 50.289 ], [ 5.748, 50.295 ], [ 5.749, 50.301 ], [ 5.727, 50.304 ], [ 5.722, 50.302 ], [ 5.706, 50.319 ], [ 5.703, 50.329 ], [ 5.709, 50.329 ], [ 5.714, 50.333 ], [ 5.714, 50.339 ], [ 5.71, 50.343 ], [ 5.714, 50.347 ], [ 5.711, 50.348 ], [ 5.72, 50.353 ], [ 5.72, 50.358 ], [ 5.711, 50.358 ], [ 5.707, 50.361 ], [ 5.696, 50.357 ], [ 5.673, 50.356 ], [ 5.67, 50.357 ], [ 5.671, 50.364 ], [ 5.676, 50.368 ], [ 5.646, 50.366 ], [ 5.631, 50.372 ], [ 5.636, 50.376 ], [ 5.614, 50.382 ], [ 5.594, 50.398 ], [ 5.587, 50.399 ], [ 5.57, 50.397 ], [ 5.554, 50.389 ], [ 5.536, 50.392 ], [ 5.529, 50.397 ], [ 5.536, 50.4 ], [ 5.536, 50.402 ], [ 5.519, 50.403 ], [ 5.521, 50.407 ], [ 5.519, 50.41 ], [ 5.509, 50.415 ], [ 5.513, 50.418 ], [ 5.511, 50.419 ], [ 5.515, 50.421 ], [ 5.511, 50.422 ], [ 5.513, 50.425 ], [ 5.477, 50.414 ], [ 5.467, 50.408 ], [ 5.456, 50.41 ], [ 5.459, 50.413 ], [ 5.451, 50.417 ], [ 5.453, 50.421 ], [ 5.441, 50.421 ], [ 5.434, 50.424 ], [ 5.435, 50.426 ], [ 5.431, 50.43 ], [ 5.422, 50.431 ], [ 5.406, 50.426 ], [ 5.409, 50.415 ], [ 5.406, 50.414 ], [ 5.411, 50.411 ], [ 5.422, 50.413 ], [ 5.429, 50.403 ], [ 5.396, 50.384 ], [ 5.397, 50.381 ], [ 5.393, 50.379 ], [ 5.383, 50.387 ], [ 5.368, 50.38 ], [ 5.361, 50.381 ], [ 5.363, 50.384 ], [ 5.359, 50.387 ], [ 5.351, 50.388 ], [ 5.297, 50.365 ], [ 5.281, 50.378 ], [ 5.279, 50.389 ], [ 5.287, 50.395 ], [ 5.28, 50.396 ], [ 5.276, 50.394 ], [ 5.275, 50.399 ], [ 5.26, 50.403 ], [ 5.254, 50.4 ], [ 5.237, 50.403 ], [ 5.221, 50.417 ], [ 5.237, 50.427 ], [ 5.233, 50.431 ], [ 5.236, 50.438 ], [ 5.23, 50.444 ], [ 5.225, 50.442 ], [ 5.21, 50.459 ], [ 5.199, 50.479 ], [ 5.18, 50.476 ] ], [ [ 6.248, 50.598 ], [ 6.246, 50.597 ], [ 6.248, 50.597 ], [ 6.248, 50.598 ] ] ], [ [ [ 6.188, 50.665 ], [ 6.192, 50.664 ], [ 6.195, 50.663 ], [ 6.188, 50.664 ], [ 6.166, 50.662 ], [ 6.188, 50.665 ] ] ], [ [ [ 6.197, 50.659 ], [ 6.196, 50.658 ], [ 6.196, 50.657 ], [ 6.195, 50.663 ], [ 6.197, 50.659 ] ] ], [ [ [ 6.186, 50.641 ], [ 6.185, 50.642 ], [ 6.184, 50.647 ], [ 6.186, 50.641 ] ] ], [ [ [ 6.187, 50.641 ], [ 6.197, 50.641 ], [ 6.189, 50.64 ], [ 6.186, 50.641 ], [ 6.187, 50.641 ] ] ], [ [ [ 6.204, 50.64 ], [ 6.222, 50.641 ], [ 6.221, 50.64 ], [ 6.203, 50.639 ], [ 6.197, 50.641 ], [ 6.204, 50.64 ] ] ], [ [ [ 6.227, 50.648 ], [ 6.226, 50.643 ], [ 6.223, 50.641 ], [ 6.222, 50.641 ], [ 6.227, 50.648 ] ] ], [ [ [ 6.228, 50.649 ], [ 6.23, 50.649 ], [ 6.227, 50.648 ], [ 6.228, 50.649 ] ] ], [ [ [ 6.246, 50.641 ], [ 6.246, 50.64 ], [ 6.234, 50.648 ], [ 6.246, 50.641 ] ] ], [ [ [ 6.262, 50.643 ], [ 6.265, 50.643 ], [ 6.246, 50.641 ], [ 6.262, 50.643 ] ] ], [ [ [ 6.266, 50.642 ], [ 6.274, 50.63 ], [ 6.265, 50.643 ], [ 6.266, 50.642 ] ] ], [ [ [ 6.273, 50.628 ], [ 6.269, 50.625 ], [ 6.274, 50.63 ], [ 6.273, 50.628 ] ] ], [ [ [ 6.239, 50.578 ], [ 6.239, 50.585 ], [ 6.24, 50.586 ], [ 6.239, 50.578 ] ] ], [ [ [ 6.234, 50.564 ], [ 6.228, 50.562 ], [ 6.227, 50.557 ], [ 6.225, 50.556 ], [ 6.227, 50.562 ], [ 6.235, 50.566 ], [ 6.234, 50.564 ] ] ], [ [ [ 6.225, 50.555 ], [ 6.221, 50.555 ], [ 6.216, 50.556 ], [ 6.21, 50.554 ], [ 6.211, 50.555 ], [ 6.216, 50.557 ], [ 6.225, 50.556 ], [ 6.225, 50.555 ] ] ], [ [ [ 6.208, 50.547 ], [ 6.207, 50.547 ], [ 6.21, 50.554 ], [ 6.208, 50.547 ] ] ], [ [ [ 6.199, 50.527 ], [ 6.198, 50.528 ], [ 6.197, 50.53 ], [ 6.199, 50.527 ] ] ], [ [ [ 6.203, 50.526 ], [ 6.207, 50.523 ], [ 6.199, 50.527 ], [ 6.203, 50.526 ] ] ] ] } },
{ "type": "Feature", "properties": { "nis": "70000" }, "geometry": { "type": "MultiPolygon", "coordinates": [ [ [ [ 5.156, 50.698 ], [ 5.149, 50.695 ], [ 5.122, 50.708 ], [ 5.103, 50.709 ], [ 5.109, 50.72 ], [ 5.107, 50.723 ], [ 5.11, 50.722 ], [ 5.115, 50.731 ], [ 5.119, 50.732 ], [ 5.121, 50.735 ], [ 5.114, 50.737 ], [ 5.114, 50.739 ], [ 5.107, 50.742 ], [ 5.102, 50.741 ], [ 5.104, 50.751 ], [ 5.117, 50.764 ], [ 5.111, 50.771 ], [ 5.109, 50.778 ], [ 5.107, 50.779 ], [ 5.117, 50.793 ], [ 5.133, 50.792 ], [ 5.143, 50.804 ], [ 5.152, 50.809 ], [ 5.15, 50.812 ], [ 5.143, 50.809 ], [ 5.13, 50.815 ], [ 5.132, 50.82 ], [ 5.138, 50.825 ], [ 5.135, 50.83 ], [ 5.136, 50.835 ], [ 5.145, 50.845 ], [ 5.137, 50.848 ], [ 5.149, 50.853 ], [ 5.147, 50.855 ], [ 5.15, 50.858 ], [ 5.148, 50.861 ], [ 5.155, 50.865 ], [ 5.155, 50.88 ], [ 5.17, 50.872 ], [ 5.179, 50.879 ], [ 5.179, 50.886 ], [ 5.186, 50.889 ], [ 5.187, 50.905 ], [ 5.17, 50.914 ], [ 5.137, 50.913 ], [ 5.133, 50.922 ], [ 5.103, 50.915 ], [ 5.092, 50.909 ], [ 5.078, 50.922 ], [ 5.064, 50.916 ], [ 5.054, 50.92 ], [ 5.042, 50.943 ], [ 5.053, 50.946 ], [ 5.058, 50.954 ], [ 5.076, 50.959 ], [ 5.084, 50.968 ], [ 5.085, 50.97 ], [ 5.079, 50.983 ], [ 5.084, 50.984 ], [ 5.083, 50.987 ], [ 5.095, 50.989 ], [ 5.114, 50.998 ], [ 5.125, 50.998 ], [ 5.115, 51.019 ], [ 5.127, 51.025 ], [ 5.129, 51.022 ], [ 5.124, 51.02 ], [ 5.13, 51.015 ], [ 5.16, 51.024 ], [ 5.117, 51.05 ], [ 5.08, 51.048 ], [ 5.079, 51.028 ], [ 5.082, 51.028 ], [ 5.083, 51.024 ], [ 5.058, 51.015 ], [ 5.056, 51.022 ], [ 5.044, 51.024 ], [ 5.022, 51.02 ], [ 5.009, 51.039 ], [ 5.001, 51.034 ], [ 4.984, 51.031 ], [ 4.98, 51.033 ], [ 4.997, 51.056 ], [ 5.009, 51.057 ], [ 5.011, 51.074 ], [ 5.035, 51.074 ], [ 5.095, 51.085 ], [ 5.103, 51.097 ], [ 5.127, 51.108 ], [ 5.132, 51.118 ], [ 5.182, 51.118 ], [ 5.199, 51.125 ], [ 5.203, 51.129 ], [ 5.205, 51.14 ], [ 5.222, 51.139 ], [ 5.235, 51.133 ], [ 5.257, 51.147 ], [ 5.261, 51.147 ], [ 5.26, 51.184 ], [ 5.239, 51.201 ], [ 5.228, 51.204 ], [ 5.222, 51.211 ], [ 5.217, 51.211 ], [ 5.215, 51.221 ], [ 5.216, 51.247 ], [ 5.237, 51.261 ], [ 5.263, 51.267 ], [ 5.296, 51.261 ], [ 5.336, 51.263 ], [ 5.343, 51.266 ], [ 5.346, 51.276 ], [ 5.417, 51.262 ], [ 5.433, 51.276 ], [ 5.438, 51.276 ], [ 5.442, 51.282 ], [ 5.465, 51.285 ], [ 5.477, 51.291 ], [ 5.483, 51.3 ], [ 5.516, 51.295 ], [ 5.529, 51.282 ], [ 5.556, 51.266 ], [ 5.555, 51.244 ], [ 5.56, 51.222 ], [ 5.653, 51.198 ], [ 5.654, 51.194 ], [ 5.65, 51.194 ], [ 5.658, 51.185 ], [ 5.671, 51.186 ], [ 5.677, 51.183 ], [ 5.689, 51.185 ], [ 5.709, 51.18 ], [ 5.718, 51.184 ], [ 5.74, 51.185 ], [ 5.746, 51.189 ], [ 5.749, 51.189 ], [ 5.777, 51.178 ], [ 5.773, 51.173 ], [ 5.78, 51.172 ], [ 5.77, 51.169 ], [ 5.77, 51.164 ], [ 5.779, 51.163 ], [ 5.779, 51.159 ], [ 5.775, 51.155 ], [ 5.778, 51.151 ], [ 5.799, 51.158 ], [ 5.805, 51.163 ], [ 5.815, 51.159 ], [ 5.816, 51.163 ], [ 5.824, 51.168 ], [ 5.833, 51.162 ], [ 5.833, 51.159 ], [ 5.839, 51.157 ], [ 5.836, 51.154 ], [ 5.856, 51.145 ], [ 5.846, 51.141 ], [ 5.841, 51.131 ], [ 5.825, 51.129 ], [ 5.81, 51.118 ], [ 5.808, 51.113 ], [ 5.811, 51.109 ], [ 5.83, 51.106 ], [ 5.834, 51.103 ], [ 5.832, 51.097 ], [ 5.824, 51.092 ], [ 5.808, 51.096 ], [ 5.796, 51.091 ], [ 5.796, 51.087 ], [ 5.805, 51.08 ], [ 5.797, 51.072 ], [ 5.8, 51.061 ], [ 5.793, 51.059 ], [ 5.774, 51.062 ], [ 5.771, 51.049 ], [ 5.758, 51.035 ], [ 5.76, 51.031 ], [ 5.773, 51.027 ], [ 5.776, 51.023 ], [ 5.766, 51.011 ], [ 5.768, 51.0 ], [ 5.756, 50.991 ], [ 5.75, 50.983 ], [ 5.737, 50.979 ], [ 5.734, 50.973 ], [ 5.72, 50.962 ], [ 5.723, 50.956 ], [ 5.731, 50.955 ], [ 5.745, 50.962 ], [ 5.751, 50.961 ], [ 5.757, 50.957 ], [ 5.759, 50.952 ], [ 5.747, 50.947 ], [ 5.744, 50.938 ], [ 5.728, 50.926 ], [ 5.727, 50.913 ], [ 5.723, 50.909 ], [ 5.699, 50.911 ], [ 5.696, 50.908 ], [ 5.696, 50.898 ], [ 5.683, 50.889 ], [ 5.679, 50.88 ], [ 5.67, 50.882 ], [ 5.644, 50.871 ], [ 5.649, 50.868 ], [ 5.642, 50.864 ], [ 5.644, 50.863 ], [ 5.642, 50.859 ], [ 5.644, 50.857 ], [ 5.64, 50.854 ], [ 5.643, 50.85 ], [ 5.639, 50.848 ], [ 5.642, 50.841 ], [ 5.645, 50.839 ], [ 5.644, 50.838 ], [ 5.651, 50.832 ], [ 5.649, 50.827 ], [ 5.656, 50.824 ], [ 5.654, 50.82 ], [ 5.678, 50.816 ], [ 5.681, 50.812 ], [ 5.688, 50.812 ], [ 5.687, 50.804 ], [ 5.674, 50.805 ], [ 5.673, 50.808 ], [ 5.668, 50.805 ], [ 5.653, 50.805 ], [ 5.646, 50.793 ], [ 5.638, 50.787 ], [ 5.627, 50.782 ], [ 5.616, 50.784 ], [ 5.606, 50.779 ], [ 5.61, 50.775 ], [ 5.603, 50.777 ], [ 5.591, 50.773 ], [ 5.592, 50.77 ], [ 5.58, 50.773 ], [ 5.573, 50.771 ], [ 5.57, 50.764 ], [ 5.553, 50.764 ], [ 5.548, 50.759 ], [ 5.523, 50.759 ], [ 5.519, 50.747 ], [ 5.524, 50.742 ], [ 5.479, 50.724 ], [ 5.474, 50.726 ], [ 5.476, 50.734 ], [ 5.468, 50.737 ], [ 5.467, 50.739 ], [ 5.462, 50.739 ], [ 5.46, 50.736 ], [ 5.463, 50.731 ], [ 5.455, 50.727 ], [ 5.453, 50.721 ], [ 5.436, 50.722 ], [ 5.432, 50.718 ], [ 5.428, 50.723 ], [ 5.421, 50.719 ], [ 5.402, 50.728 ], [ 5.402, 50.735 ], [ 5.394, 50.735 ], [ 5.39, 50.748 ], [ 5.376, 50.742 ], [ 5.37, 50.747 ], [ 5.35, 50.746 ], [ 5.334, 50.735 ], [ 5.314, 50.729 ], [ 5.308, 50.724 ], [ 5.31, 50.718 ], [ 5.304, 50.716 ], [ 5.297, 50.724 ], [ 5.286, 50.724 ], [ 5.276, 50.729 ], [ 5.27, 50.726 ], [ 5.27, 50.723 ], [ 5.264, 50.72 ], [ 5.265, 50.718 ], [ 5.257, 50.715 ], [ 5.241, 50.717 ], [ 5.237, 50.727 ], [ 5.232, 50.719 ], [ 5.228, 50.718 ], [ 5.224, 50.721 ], [ 5.207, 50.721 ], [ 5.194, 50.717 ], [ 5.177, 50.723 ], [ 5.175, 50.721 ], [ 5.17, 50.722 ], [ 5.168, 50.716 ], [ 5.175, 50.715 ], [ 5.181, 50.705 ], [ 5.165, 50.696 ], [ 5.156, 50.698 ] ] ], [ [ [ 5.732, 50.755 ], [ 5.731, 50.752 ], [ 5.727, 50.752 ], [ 5.725, 50.746 ], [ 5.722, 50.746 ], [ 5.691, 50.751 ], [ 5.682, 50.758 ], [ 5.699, 50.755 ], [ 5.703, 50.759 ], [ 5.716, 50.76 ], [ 5.72, 50.765 ], [ 5.73, 50.757 ], [ 5.739, 50.757 ], [ 5.741, 50.763 ], [ 5.747, 50.77 ], [ 5.766, 50.783 ], [ 5.777, 50.783 ], [ 5.785, 50.767 ], [ 5.793, 50.77 ], [ 5.808, 50.756 ], [ 5.831, 50.759 ], [ 5.845, 50.765 ], [ 5.849, 50.753 ], [ 5.863, 50.763 ], [ 5.886, 50.77 ], [ 5.89, 50.763 ], [ 5.889, 50.757 ], [ 5.892, 50.755 ], [ 5.891, 50.751 ], [ 5.897, 50.744 ], [ 5.907, 50.742 ], [ 5.911, 50.735 ], [ 5.888, 50.717 ], [ 5.883, 50.71 ], [ 5.861, 50.717 ], [ 5.82, 50.714 ], [ 5.813, 50.715 ], [ 5.811, 50.723 ], [ 5.8, 50.732 ], [ 5.802, 50.736 ], [ 5.799, 50.736 ], [ 5.786, 50.746 ], [ 5.77, 50.751 ], [ 5.749, 50.745 ], [ 5.745, 50.749 ], [ 5.747, 50.752 ], [ 5.744, 50.754 ], [ 5.732, 50.755 ] ] ] ] } },
{ "type": "Feature", "properties": { "nis": "80000" }, "geometry": { "type": "Polygon", "coordinates": [ [ [ 5.192, 49.695 ], [ 5.164, 49.693 ], [ 5.166, 49.712 ], [ 5.159, 49.717 ], [ 5.153, 49.719 ], [ 5.144, 49.709 ], [ 5.141, 49.714 ], [ 5.126, 49.712 ], [ 5.126, 49.716 ], [ 5.123, 49.717 ], [ 5.125, 49.727 ], [ 5.119, 49.739 ], [ 5.094, 49.764 ], [ 5.088, 49.766 ], [ 5.083, 49.763 ], [ 5.063, 49.762 ], [ 5.062, 49.767 ], [ 5.037, 49.772 ], [ 5.009, 49.782 ], [ 5.007, 49.787 ], [ 4.997, 49.795 ], [ 4.998, 49.8 ], [ 4.969, 49.802 ], [ 4.969, 49.811 ], [ 4.981, 49.816 ], [ 4.977, 49.82 ], [ 4.988, 49.82 ], [ 4.991, 49.824 ], [ 4.984, 49.827 ], [ 4.985, 49.839 ], [ 4.981, 49.843 ], [ 4.988, 49.846 ], [ 4.989, 49.853 ], [ 5.012, 49.858 ], [ 5.026, 49.865 ], [ 5.026, 49.871 ], [ 5.021, 49.873 ], [ 5.037, 49.873 ], [ 5.058, 49.883 ], [ 5.063, 49.887 ], [ 5.048, 49.888 ], [ 5.049, 49.89 ], [ 5.042, 49.892 ], [ 5.047, 49.898 ], [ 5.057, 49.897 ], [ 5.065, 49.901 ], [ 5.065, 49.906 ], [ 5.072, 49.912 ], [ 5.083, 49.913 ], [ 5.098, 49.921 ], [ 5.113, 49.92 ], [ 5.12, 49.923 ], [ 5.112, 49.924 ], [ 5.098, 49.937 ], [ 5.103, 49.947 ], [ 5.102, 49.961 ], [ 5.092, 49.961 ], [ 5.079, 49.967 ], [ 5.067, 49.974 ], [ 5.065, 49.98 ], [ 5.067, 49.982 ], [ 5.06, 49.984 ], [ 5.053, 49.983 ], [ 5.051, 49.987 ], [ 5.044, 49.981 ], [ 5.03, 49.978 ], [ 5.019, 49.978 ], [ 5.008, 49.982 ], [ 5.007, 49.989 ], [ 5.013, 49.993 ], [ 5.013, 49.997 ], [ 4.995, 50.007 ], [ 4.997, 50.015 ], [ 4.991, 50.016 ], [ 4.973, 50.029 ], [ 4.979, 50.031 ], [ 4.988, 50.027 ], [ 4.994, 50.031 ], [ 4.995, 50.043 ], [ 4.997, 50.045 ], [ 5.011, 50.038 ], [ 5.029, 50.046 ], [ 5.029, 50.05 ], [ 5.041, 50.053 ], [ 5.044, 50.057 ], [ 5.042, 50.062 ], [ 5.047, 50.061 ], [ 5.054, 50.067 ], [ 5.055, 50.073 ], [ 5.049, 50.078 ], [ 5.058, 50.075 ], [ 5.061, 50.078 ], [ 5.061, 50.08 ], [ 5.053, 50.083 ], [ 5.053, 50.088 ], [ 5.057, 50.094 ], [ 5.055, 50.099 ], [ 5.059, 50.104 ], [ 5.059, 50.108 ], [ 5.066, 50.123 ], [ 5.068, 50.122 ], [ 5.066, 50.119 ], [ 5.068, 50.117 ], [ 5.06, 50.108 ], [ 5.072, 50.094 ], [ 5.123, 50.1 ], [ 5.133, 50.099 ], [ 5.136, 50.094 ], [ 5.153, 50.094 ], [ 5.152, 50.097 ], [ 5.159, 50.098 ], [ 5.158, 50.1 ], [ 5.189, 50.101 ], [ 5.188, 50.098 ], [ 5.198, 50.098 ], [ 5.199, 50.1 ], [ 5.2, 50.097 ], [ 5.227, 50.102 ], [ 5.227, 50.108 ], [ 5.236, 50.11 ], [ 5.263, 50.109 ], [ 5.269, 50.112 ], [ 5.268, 50.12 ], [ 5.265, 50.122 ], [ 5.263, 50.121 ], [ 5.254, 50.128 ], [ 5.247, 50.127 ], [ 5.242, 50.134 ], [ 5.266, 50.143 ], [ 5.269, 50.14 ], [ 5.274, 50.146 ], [ 5.283, 50.148 ], [ 5.283, 50.155 ], [ 5.274, 50.156 ], [ 5.281, 50.159 ], [ 5.272, 50.16 ], [ 5.267, 50.163 ], [ 5.267, 50.168 ], [ 5.261, 50.171 ], [ 5.254, 50.179 ], [ 5.243, 50.187 ], [ 5.249, 50.191 ], [ 5.247, 50.196 ], [ 5.242, 50.193 ], [ 5.235, 50.196 ], [ 5.246, 50.204 ], [ 5.234, 50.21 ], [ 5.232, 50.215 ], [ 5.207, 50.217 ], [ 5.229, 50.228 ], [ 5.235, 50.222 ], [ 5.259, 50.227 ], [ 5.262, 50.23 ], [ 5.26, 50.232 ], [ 5.252, 50.238 ], [ 5.273, 50.242 ], [ 5.283, 50.249 ], [ 5.294, 50.239 ], [ 5.312, 50.245 ], [ 5.331, 50.254 ], [ 5.359, 50.275 ], [ 5.377, 50.278 ], [ 5.395, 50.287 ], [ 5.395, 50.294 ], [ 5.389, 50.298 ], [ 5.394, 50.299 ], [ 5.39, 50.307 ], [ 5.393, 50.31 ], [ 5.388, 50.316 ], [ 5.38, 50.313 ], [ 5.362, 50.318 ], [ 5.347, 50.305 ], [ 5.341, 50.312 ], [ 5.342, 50.316 ], [ 5.351, 50.321 ], [ 5.377, 50.327 ], [ 5.396, 50.336 ], [ 5.396, 50.341 ], [ 5.385, 50.345 ], [ 5.381, 50.351 ], [ 5.403, 50.368 ], [ 5.397, 50.369 ], [ 5.401, 50.374 ], [ 5.393, 50.379 ], [ 5.397, 50.381 ], [ 5.396, 50.384 ], [ 5.429, 50.403 ], [ 5.422, 50.413 ], [ 5.407, 50.412 ], [ 5.409, 50.415 ], [ 5.406, 50.426 ], [ 5.419, 50.43 ], [ 5.43, 50.43 ], [ 5.435, 50.426 ], [ 5.434, 50.424 ], [ 5.441, 50.421 ], [ 5.453, 50.421 ], [ 5.451, 50.417 ], [ 5.459, 50.413 ], [ 5.456, 50.41 ], [ 5.467, 50.408 ], [ 5.477, 50.414 ], [ 5.513, 50.425 ], [ 5.511, 50.422 ], [ 5.515, 50.421 ], [ 5.511, 50.419 ], [ 5.513, 50.418 ], [ 5.509, 50.415 ], [ 5.519, 50.41 ], [ 5.521, 50.407 ], [ 5.519, 50.403 ], [ 5.536, 50.402 ], [ 5.536, 50.4 ], [ 5.529, 50.397 ], [ 5.536, 50.392 ], [ 5.554, 50.389 ], [ 5.57, 50.397 ], [ 5.587, 50.399 ], [ 5.594, 50.398 ], [ 5.614, 50.382 ], [ 5.636, 50.376 ], [ 5.631, 50.372 ], [ 5.646, 50.366 ], [ 5.676, 50.368 ], [ 5.671, 50.364 ], [ 5.67, 50.357 ], [ 5.673, 50.356 ], [ 5.696, 50.357 ], [ 5.707, 50.361 ], [ 5.711, 50.358 ], [ 5.72, 50.358 ], [ 5.72, 50.353 ], [ 5.711, 50.348 ], [ 5.714, 50.347 ], [ 5.71, 50.343 ], [ 5.714, 50.339 ], [ 5.714, 50.333 ], [ 5.709, 50.329 ], [ 5.703, 50.329 ], [ 5.706, 50.319 ], [ 5.722, 50.302 ], [ 5.727, 50.304 ], [ 5.749, 50.301 ], [ 5.748, 50.295 ], [ 5.735, 50.289 ], [ 5.731, 50.275 ], [ 5.717, 50.267 ], [ 5.724, 50.261 ], [ 5.745, 50.261 ], [ 5.751, 50.266 ], [ 5.764, 50.268 ], [ 5.782, 50.263 ], [ 5.8, 50.265 ], [ 5.802, 50.261 ], [ 5.806, 50.261 ], [ 5.808, 50.254 ], [ 5.81, 50.264 ], [ 5.827, 50.267 ], [ 5.84, 50.261 ], [ 5.862, 50.268 ], [ 5.871, 50.268 ], [ 5.874, 50.277 ], [ 5.877, 50.276 ], [ 5.881, 50.28 ], [ 5.865, 50.283 ], [ 5.845, 50.281 ], [ 5.846, 50.288 ], [ 5.851, 50.289 ], [ 5.851, 50.292 ], [ 5.859, 50.296 ], [ 5.855, 50.3 ], [ 5.863, 50.304 ], [ 5.869, 50.314 ], [ 5.869, 50.319 ], [ 5.867, 50.319 ], [ 5.863, 50.325 ], [ 5.85, 50.327 ], [ 5.851, 50.335 ], [ 5.862, 50.348 ], [ 5.889, 50.339 ], [ 5.901, 50.339 ], [ 5.924, 50.332 ], [ 5.933, 50.334 ], [ 5.937, 50.338 ], [ 5.954, 50.334 ], [ 5.961, 50.327 ], [ 5.98, 50.33 ], [ 5.979, 50.327 ], [ 5.983, 50.32 ], [ 6.009, 50.314 ], [ 6.014, 50.311 ], [ 6.014, 50.302 ], [ 6.017, 50.3 ], [ 6.011, 50.27 ], [ 6.017, 50.252 ], [ 6.009, 50.239 ], [ 6.009, 50.231 ], [ 6.015, 50.214 ], [ 6.012, 50.206 ], [ 6.021, 50.206 ], [ 6.027, 50.21 ], [ 6.034, 50.206 ], [ 6.033, 50.201 ], [ 6.021, 50.194 ], [ 6.026, 50.183 ], [ 6.002, 50.176 ], [ 5.964, 50.173 ], [ 5.962, 50.161 ], [ 5.967, 50.155 ], [ 5.958, 50.151 ], [ 5.961, 50.15 ], [ 5.961, 50.143 ], [ 5.959, 50.139 ], [ 5.961, 50.131 ], [ 5.914, 50.122 ], [ 5.895, 50.112 ], [ 5.895, 50.101 ], [ 5.886, 50.091 ], [ 5.887, 50.079 ], [ 5.861, 50.069 ], [ 5.854, 50.059 ], [ 5.87, 50.046 ], [ 5.856, 50.036 ], [ 5.86, 50.029 ], [ 5.853, 50.028 ], [ 5.852, 50.023 ], [ 5.841, 50.018 ], [ 5.834, 50.018 ], [ 5.83, 50.015 ], [ 5.819, 50.013 ], [ 5.822, 50.006 ], [ 5.822, 49.999 ], [ 5.832, 49.991 ], [ 5.84, 49.989 ], [ 5.839, 49.982 ], [ 5.831, 49.976 ], [ 5.812, 49.972 ], [ 5.811, 49.964 ], [ 5.807, 49.962 ], [ 5.796, 49.966 ], [ 5.791, 49.962 ], [ 5.775, 49.961 ], [ 5.777, 49.958 ], [ 5.774, 49.957 ], [ 5.775, 49.953 ], [ 5.77, 49.95 ], [ 5.775, 49.938 ], [ 5.77, 49.937 ], [ 5.771, 49.932 ], [ 5.764, 49.931 ], [ 5.765, 49.924 ], [ 5.762, 49.923 ], [ 5.76, 49.917 ], [ 5.764, 49.916 ], [ 5.74, 49.904 ], [ 5.736, 49.897 ], [ 5.771, 49.887 ], [ 5.783, 49.878 ], [ 5.783, 49.876 ], [ 5.778, 49.876 ], [ 5.784, 49.873 ], [ 5.778, 49.872 ], [ 5.774, 49.867 ], [ 5.771, 49.872 ], [ 5.765, 49.869 ], [ 5.755, 49.873 ], [ 5.753, 49.869 ], [ 5.757, 49.865 ], [ 5.754, 49.862 ], [ 5.761, 49.856 ], [ 5.746, 49.854 ], [ 5.758, 49.849 ], [ 5.754, 49.845 ], [ 5.748, 49.847 ], [ 5.75, 49.84 ], [ 5.741, 49.839 ], [ 5.739, 49.834 ], [ 5.748, 49.825 ], [ 5.743, 49.82 ], [ 5.747, 49.815 ], [ 5.751, 49.815 ], [ 5.753, 49.793 ], [ 5.755, 49.791 ], [ 5.776, 49.795 ], [ 5.781, 49.792 ], [ 5.785, 49.796 ], [ 5.79, 49.796 ], [ 5.793, 49.791 ], [ 5.792, 49.787 ], [ 5.806, 49.774 ], [ 5.809, 49.765 ], [ 5.816, 49.762 ], [ 5.818, 49.754 ], [ 5.832, 49.747 ], [ 5.83, 49.743 ], [ 5.833, 49.741 ], [ 5.827, 49.739 ], [ 5.828, 49.733 ], [ 5.825, 49.732 ], [ 5.826, 49.724 ], [ 5.835, 49.725 ], [ 5.844, 49.721 ], [ 5.865, 49.727 ], [ 5.871, 49.722 ], [ 5.875, 49.722 ], [ 5.875, 49.716 ], [ 5.887, 49.709 ], [ 5.866, 49.693 ], [ 5.862, 49.681 ], [ 5.865, 49.676 ], [ 5.882, 49.672 ], [ 5.887, 49.668 ], [ 5.89, 49.671 ], [ 5.893, 49.666 ], [ 5.895, 49.669 ], [ 5.899, 49.666 ], [ 5.902, 49.668 ], [ 5.902, 49.664 ], [ 5.908, 49.666 ], [ 5.911, 49.662 ], [ 5.905, 49.661 ], [ 5.903, 49.658 ], [ 5.905, 49.655 ], [ 5.902, 49.651 ], [ 5.904, 49.641 ], [ 5.908, 49.639 ], [ 5.899, 49.634 ], [ 5.892, 49.636 ], [ 5.884, 49.633 ], [ 5.883, 49.631 ], [ 5.887, 49.627 ], [ 5.876, 49.62 ], [ 5.877, 49.608 ], [ 5.848, 49.596 ], [ 5.85, 49.587 ], [ 5.871, 49.588 ], [ 5.873, 49.584 ], [ 5.866, 49.581 ], [ 5.872, 49.58 ], [ 5.87, 49.577 ], [ 5.873, 49.574 ], [ 5.861, 49.571 ], [ 5.861, 49.567 ], [ 5.843, 49.561 ], [ 5.846, 49.558 ], [ 5.842, 49.553 ], [ 5.828, 49.55 ], [ 5.826, 49.552 ], [ 5.819, 49.546 ], [ 5.808, 49.551 ], [ 5.792, 49.552 ], [ 5.786, 49.558 ], [ 5.771, 49.563 ], [ 5.758, 49.561 ], [ 5.76, 49.558 ], [ 5.756, 49.556 ], [ 5.758, 49.543 ], [ 5.747, 49.539 ], [ 5.738, 49.539 ], [ 5.732, 49.544 ], [ 5.734, 49.546 ], [ 5.725, 49.544 ], [ 5.721, 49.54 ], [ 5.705, 49.539 ], [ 5.691, 49.546 ], [ 5.669, 49.548 ], [ 5.664, 49.553 ], [ 5.643, 49.551 ], [ 5.643, 49.547 ], [ 5.634, 49.544 ], [ 5.631, 49.542 ], [ 5.633, 49.54 ], [ 5.622, 49.534 ], [ 5.616, 49.527 ], [ 5.621, 49.52 ], [ 5.611, 49.506 ], [ 5.604, 49.509 ], [ 5.601, 49.517 ], [ 5.591, 49.523 ], [ 5.589, 49.522 ], [ 5.571, 49.528 ], [ 5.563, 49.526 ], [ 5.557, 49.529 ], [ 5.545, 49.524 ], [ 5.541, 49.515 ], [ 5.5, 49.507 ], [ 5.484, 49.507 ], [ 5.479, 49.5 ], [ 5.472, 49.497 ], [ 5.465, 49.499 ], [ 5.466, 49.509 ], [ 5.454, 49.513 ], [ 5.447, 49.518 ], [ 5.455, 49.52 ], [ 5.461, 49.526 ], [ 5.467, 49.526 ], [ 5.465, 49.539 ], [ 5.441, 49.552 ], [ 5.448, 49.554 ], [ 5.457, 49.567 ], [ 5.438, 49.57 ], [ 5.429, 49.588 ], [ 5.43, 49.594 ], [ 5.418, 49.6 ], [ 5.411, 49.608 ], [ 5.402, 49.61 ], [ 5.393, 49.618 ], [ 5.375, 49.624 ], [ 5.364, 49.623 ], [ 5.348, 49.631 ], [ 5.343, 49.627 ], [ 5.342, 49.62 ], [ 5.338, 49.618 ], [ 5.34, 49.617 ], [ 5.326, 49.616 ], [ 5.312, 49.612 ], [ 5.311, 49.618 ], [ 5.305, 49.625 ], [ 5.305, 49.63 ], [ 5.318, 49.646 ], [ 5.332, 49.654 ], [ 5.309, 49.672 ], [ 5.294, 49.677 ], [ 5.281, 49.686 ], [ 5.281, 49.689 ], [ 5.269, 49.697 ], [ 5.256, 49.694 ], [ 5.243, 49.685 ], [ 5.243, 49.689 ], [ 5.232, 49.692 ], [ 5.218, 49.688 ], [ 5.206, 49.696 ], [ 5.196, 49.692 ], [ 5.192, 49.695 ] ] ] } },
{ "type": "Feature", "properties": { "nis": "90000" }, "geometry": { "type": "Polygon", "coordinates": [ [ [ 4.481, 49.948 ], [ 4.445, 49.937 ], [ 4.441, 49.941 ], [ 4.433, 49.942 ], [ 4.446, 49.954 ], [ 4.435, 49.973 ], [ 4.424, 49.983 ], [ 4.414, 49.999 ], [ 4.415, 50.011 ], [ 4.409, 50.037 ], [ 4.407, 50.037 ], [ 4.41, 50.045 ], [ 4.406, 50.05 ], [ 4.401, 50.048 ], [ 4.4, 50.051 ], [ 4.394, 50.048 ], [ 4.39, 50.051 ], [ 4.396, 50.058 ], [ 4.39, 50.067 ], [ 4.394, 50.081 ], [ 4.386, 50.109 ], [ 4.401, 50.123 ], [ 4.384, 50.136 ], [ 4.389, 50.144 ], [ 4.385, 50.15 ], [ 4.376, 50.153 ], [ 4.376, 50.157 ], [ 4.365, 50.157 ], [ 4.362, 50.171 ], [ 4.392, 50.181 ], [ 4.397, 50.186 ], [ 4.396, 50.193 ], [ 4.391, 50.194 ], [ 4.393, 50.198 ], [ 4.389, 50.2 ], [ 4.394, 50.204 ], [ 4.391, 50.212 ], [ 4.399, 50.213 ], [ 4.395, 50.216 ], [ 4.398, 50.218 ], [ 4.394, 50.221 ], [ 4.397, 50.224 ], [ 4.396, 50.226 ], [ 4.4, 50.226 ], [ 4.401, 50.233 ], [ 4.389, 50.234 ], [ 4.387, 50.239 ], [ 4.379, 50.239 ], [ 4.367, 50.243 ], [ 4.345, 50.227 ], [ 4.32, 50.235 ], [ 4.318, 50.237 ], [ 4.309, 50.238 ], [ 4.308, 50.242 ], [ 4.299, 50.244 ], [ 4.293, 50.25 ], [ 4.286, 50.25 ], [ 4.29, 50.253 ], [ 4.287, 50.256 ], [ 4.296, 50.263 ], [ 4.304, 50.264 ], [ 4.31, 50.27 ], [ 4.315, 50.267 ], [ 4.32, 50.269 ], [ 4.316, 50.273 ], [ 4.327, 50.273 ], [ 4.328, 50.278 ], [ 4.333, 50.276 ], [ 4.338, 50.278 ], [ 4.337, 50.275 ], [ 4.341, 50.279 ], [ 4.351, 50.278 ], [ 4.358, 50.275 ], [ 4.362, 50.279 ], [ 4.362, 50.283 ], [ 4.369, 50.285 ], [ 4.369, 50.292 ], [ 4.387, 50.29 ], [ 4.399, 50.297 ], [ 4.405, 50.305 ], [ 4.401, 50.308 ], [ 4.402, 50.311 ], [ 4.42, 50.306 ], [ 4.432, 50.31 ], [ 4.457, 50.305 ], [ 4.466, 50.31 ], [ 4.464, 50.314 ], [ 4.471, 50.319 ], [ 4.475, 50.328 ], [ 4.504, 50.329 ], [ 4.508, 50.325 ], [ 4.505, 50.322 ], [ 4.518, 50.318 ], [ 4.52, 50.315 ], [ 4.566, 50.323 ], [ 4.591, 50.322 ], [ 4.589, 50.323 ], [ 4.594, 50.327 ], [ 4.594, 50.34 ], [ 4.582, 50.342 ], [ 4.589, 50.35 ], [ 4.582, 50.358 ], [ 4.586, 50.367 ], [ 4.594, 50.372 ], [ 4.595, 50.377 ], [ 4.592, 50.38 ], [ 4.606, 50.384 ], [ 4.605, 50.387 ], [ 4.592, 50.391 ], [ 4.584, 50.398 ], [ 4.593, 50.398 ], [ 4.594, 50.402 ], [ 4.604, 50.403 ], [ 4.604, 50.408 ], [ 4.609, 50.41 ], [ 4.611, 50.422 ], [ 4.617, 50.425 ], [ 4.613, 50.43 ], [ 4.606, 50.426 ], [ 4.595, 50.429 ], [ 4.591, 50.433 ], [ 4.582, 50.432 ], [ 4.584, 50.438 ], [ 4.576, 50.439 ], [ 4.573, 50.442 ], [ 4.582, 50.442 ], [ 4.584, 50.446 ], [ 4.573, 50.454 ], [ 4.585, 50.454 ], [ 4.589, 50.457 ], [ 4.587, 50.463 ], [ 4.595, 50.467 ], [ 4.601, 50.477 ], [ 4.587, 50.49 ], [ 4.591, 50.491 ], [ 4.586, 50.494 ], [ 4.595, 50.498 ], [ 4.594, 50.499 ], [ 4.585, 50.496 ], [ 4.579, 50.5 ], [ 4.562, 50.489 ], [ 4.56, 50.493 ], [ 4.564, 50.497 ], [ 4.559, 50.5 ], [ 4.557, 50.506 ], [ 4.563, 50.508 ], [ 4.566, 50.52 ], [ 4.574, 50.521 ], [ 4.58, 50.53 ], [ 4.575, 50.561 ], [ 4.589, 50.562 ], [ 4.602, 50.569 ], [ 4.611, 50.567 ], [ 4.618, 50.57 ], [ 4.621, 50.562 ], [ 4.634, 50.566 ], [ 4.638, 50.562 ], [ 4.642, 50.565 ], [ 4.645, 50.56 ], [ 4.669, 50.566 ], [ 4.673, 50.571 ], [ 4.662, 50.576 ], [ 4.657, 50.586 ], [ 4.656, 50.6 ], [ 4.66, 50.604 ], [ 4.673, 50.608 ], [ 4.679, 50.603 ], [ 4.697, 50.599 ], [ 4.705, 50.594 ], [ 4.712, 50.596 ], [ 4.71, 50.6 ], [ 4.711, 50.601 ], [ 4.707, 50.604 ], [ 4.714, 50.608 ], [ 4.735, 50.611 ], [ 4.739, 50.609 ], [ 4.737, 50.605 ], [ 4.745, 50.601 ], [ 4.741, 50.598 ], [ 4.747, 50.593 ], [ 4.744, 50.591 ], [ 4.745, 50.589 ], [ 4.766, 50.6 ], [ 4.78, 50.601 ], [ 4.787, 50.598 ], [ 4.791, 50.59 ], [ 4.797, 50.592 ], [ 4.786, 50.602 ], [ 4.8, 50.605 ], [ 4.8, 50.602 ], [ 4.817, 50.609 ], [ 4.84, 50.61 ], [ 4.863, 50.618 ], [ 4.901, 50.622 ], [ 4.898, 50.628 ], [ 4.9, 50.629 ], [ 4.915, 50.626 ], [ 4.929, 50.627 ], [ 4.941, 50.636 ], [ 4.941, 50.643 ], [ 4.965, 50.648 ], [ 4.979, 50.64 ], [ 4.983, 50.642 ], [ 4.99, 50.637 ], [ 4.982, 50.635 ], [ 4.988, 50.626 ], [ 4.979, 50.619 ], [ 5.0, 50.61 ], [ 5.003, 50.607 ], [ 5.0, 50.606 ], [ 4.999, 50.6 ], [ 5.029, 50.589 ], [ 5.028, 50.585 ], [ 5.034, 50.582 ], [ 5.03, 50.58 ], [ 5.034, 50.571 ], [ 5.049, 50.561 ], [ 5.044, 50.558 ], [ 5.051, 50.555 ], [ 5.046, 50.551 ], [ 5.054, 50.541 ], [ 5.038, 50.537 ], [ 5.034, 50.532 ], [ 5.092, 50.529 ], [ 5.095, 50.527 ], [ 5.09, 50.526 ], [ 5.097, 50.52 ], [ 5.094, 50.519 ], [ 5.097, 50.517 ], [ 5.095, 50.515 ], [ 5.101, 50.513 ], [ 5.101, 50.508 ], [ 5.113, 50.507 ], [ 5.115, 50.504 ], [ 5.142, 50.512 ], [ 5.145, 50.509 ], [ 5.141, 50.506 ], [ 5.129, 50.503 ], [ 5.133, 50.498 ], [ 5.133, 50.49 ], [ 5.14, 50.487 ], [ 5.157, 50.489 ], [ 5.16, 50.487 ], [ 5.149, 50.482 ], [ 5.156, 50.478 ], [ 5.156, 50.474 ], [ 5.164, 50.47 ], [ 5.164, 50.468 ], [ 5.172, 50.469 ], [ 5.18, 50.476 ], [ 5.199, 50.479 ], [ 5.21, 50.459 ], [ 5.225, 50.442 ], [ 5.23, 50.444 ], [ 5.236, 50.438 ], [ 5.233, 50.431 ], [ 5.237, 50.427 ], [ 5.221, 50.417 ], [ 5.234, 50.404 ], [ 5.254, 50.4 ], [ 5.26, 50.403 ], [ 5.275, 50.399 ], [ 5.276, 50.394 ], [ 5.28, 50.396 ], [ 5.287, 50.395 ], [ 5.279, 50.389 ], [ 5.281, 50.378 ], [ 5.297, 50.365 ], [ 5.351, 50.388 ], [ 5.359, 50.387 ], [ 5.363, 50.384 ], [ 5.361, 50.381 ], [ 5.368, 50.38 ], [ 5.383, 50.387 ], [ 5.401, 50.374 ], [ 5.397, 50.369 ], [ 5.403, 50.368 ], [ 5.399, 50.363 ], [ 5.381, 50.352 ], [ 5.385, 50.345 ], [ 5.396, 50.341 ], [ 5.396, 50.336 ], [ 5.377, 50.327 ], [ 5.351, 50.321 ], [ 5.342, 50.316 ], [ 5.341, 50.312 ], [ 5.347, 50.305 ], [ 5.362, 50.318 ], [ 5.38, 50.313 ], [ 5.388, 50.316 ], [ 5.393, 50.31 ], [ 5.39, 50.307 ], [ 5.394, 50.299 ], [ 5.389, 50.298 ], [ 5.395, 50.294 ], [ 5.395, 50.287 ], [ 5.377, 50.278 ], [ 5.359, 50.275 ], [ 5.331, 50.254 ], [ 5.312, 50.245 ], [ 5.294, 50.239 ], [ 5.283, 50.249 ], [ 5.273, 50.242 ], [ 5.252, 50.238 ], [ 5.26, 50.232 ], [ 5.262, 50.23 ], [ 5.259, 50.227 ], [ 5.235, 50.222 ], [ 5.229, 50.228 ], [ 5.207, 50.217 ], [ 5.232, 50.215 ], [ 5.234, 50.21 ], [ 5.246, 50.204 ], [ 5.235, 50.196 ], [ 5.242, 50.193 ], [ 5.247, 50.196 ], [ 5.249, 50.191 ], [ 5.243, 50.187 ], [ 5.254, 50.179 ], [ 5.261, 50.171 ], [ 5.267, 50.168 ], [ 5.267, 50.163 ], [ 5.272, 50.16 ], [ 5.281, 50.159 ], [ 5.274, 50.156 ], [ 5.283, 50.155 ], [ 5.283, 50.148 ], [ 5.274, 50.146 ], [ 5.269, 50.14 ], [ 5.266, 50.143 ], [ 5.242, 50.134 ], [ 5.247, 50.127 ], [ 5.254, 50.128 ], [ 5.263, 50.121 ], [ 5.265, 50.122 ], [ 5.268, 50.12 ], [ 5.269, 50.112 ], [ 5.263, 50.109 ], [ 5.236, 50.11 ], [ 5.227, 50.108 ], [ 5.227, 50.102 ], [ 5.2, 50.097 ], [ 5.199, 50.1 ], [ 5.198, 50.098 ], [ 5.188, 50.098 ], [ 5.189, 50.101 ], [ 5.158, 50.1 ], [ 5.159, 50.098 ], [ 5.152, 50.097 ], [ 5.153, 50.094 ], [ 5.136, 50.094 ], [ 5.133, 50.099 ], [ 5.123, 50.1 ], [ 5.072, 50.094 ], [ 5.06, 50.108 ], [ 5.068, 50.117 ], [ 5.066, 50.119 ], [ 5.068, 50.122 ], [ 5.066, 50.123 ], [ 5.059, 50.108 ], [ 5.059, 50.104 ], [ 5.055, 50.099 ], [ 5.057, 50.094 ], [ 5.053, 50.088 ], [ 5.053, 50.083 ], [ 5.061, 50.08 ], [ 5.061, 50.078 ], [ 5.058, 50.075 ], [ 5.049, 50.078 ], [ 5.055, 50.073 ], [ 5.054, 50.067 ], [ 5.047, 50.061 ], [ 5.042, 50.062 ], [ 5.044, 50.057 ], [ 5.041, 50.053 ], [ 5.029, 50.05 ], [ 5.029, 50.046 ], [ 5.011, 50.038 ], [ 4.997, 50.045 ], [ 4.995, 50.043 ], [ 4.994, 50.031 ], [ 4.988, 50.027 ], [ 4.979, 50.031 ], [ 4.973, 50.029 ], [ 4.991, 50.016 ], [ 4.997, 50.015 ], [ 4.995, 50.007 ], [ 5.013, 49.997 ], [ 5.013, 49.993 ], [ 5.007, 49.989 ], [ 5.008, 49.982 ], [ 5.019, 49.978 ], [ 5.03, 49.978 ], [ 5.044, 49.981 ], [ 5.051, 49.987 ], [ 5.053, 49.983 ], [ 5.06, 49.984 ], [ 5.067, 49.982 ], [ 5.065, 49.98 ], [ 5.067, 49.974 ], [ 5.079, 49.967 ], [ 5.092, 49.961 ], [ 5.102, 49.961 ], [ 5.103, 49.947 ], [ 5.098, 49.937 ], [ 5.112, 49.924 ], [ 5.12, 49.923 ], [ 5.113, 49.92 ], [ 5.098, 49.921 ], [ 5.083, 49.913 ], [ 5.072, 49.912 ], [ 5.065, 49.906 ], [ 5.065, 49.901 ], [ 5.057, 49.897 ], [ 5.047, 49.898 ], [ 5.042, 49.892 ], [ 5.049, 49.89 ], [ 5.048, 49.888 ], [ 5.063, 49.887 ], [ 5.058, 49.883 ], [ 5.037, 49.873 ], [ 5.021, 49.873 ], [ 5.026, 49.871 ], [ 5.026, 49.865 ], [ 5.012, 49.858 ], [ 4.989, 49.853 ], [ 4.988, 49.846 ], [ 4.981, 49.843 ], [ 4.985, 49.839 ], [ 4.984, 49.827 ], [ 4.991, 49.824 ], [ 4.988, 49.82 ], [ 4.977, 49.82 ], [ 4.981, 49.816 ], [ 4.969, 49.811 ], [ 4.97, 49.804 ], [ 4.967, 49.798 ], [ 4.962, 49.798 ], [ 4.957, 49.802 ], [ 4.947, 49.799 ], [ 4.943, 49.79 ], [ 4.939, 49.793 ], [ 4.931, 49.787 ], [ 4.92, 49.789 ], [ 4.906, 49.786 ], [ 4.898, 49.789 ], [ 4.888, 49.788 ], [ 4.877, 49.793 ], [ 4.87, 49.794 ], [ 4.871, 49.789 ], [ 4.864, 49.789 ], [ 4.852, 49.793 ], [ 4.863, 49.802 ], [ 4.865, 49.813 ], [ 4.876, 49.819 ], [ 4.869, 49.823 ], [ 4.869, 49.831 ], [ 4.866, 49.833 ], [ 4.869, 49.834 ], [ 4.867, 49.842 ], [ 4.857, 49.841 ], [ 4.858, 49.847 ], [ 4.852, 49.853 ], [ 4.851, 49.865 ], [ 4.847, 49.868 ], [ 4.854, 49.865 ], [ 4.863, 49.867 ], [ 4.862, 49.872 ], [ 4.866, 49.878 ], [ 4.872, 49.879 ], [ 4.869, 49.884 ], [ 4.878, 49.895 ], [ 4.887, 49.899 ], [ 4.885, 49.902 ], [ 4.876, 49.901 ], [ 4.877, 49.904 ], [ 4.89, 49.909 ], [ 4.881, 49.916 ], [ 4.882, 49.922 ], [ 4.859, 49.931 ], [ 4.847, 49.949 ], [ 4.83, 49.949 ], [ 4.791, 49.958 ], [ 4.79, 49.969 ], [ 4.796, 49.976 ], [ 4.794, 49.982 ], [ 4.807, 49.984 ], [ 4.819, 49.995 ], [ 4.816, 50.0 ], [ 4.821, 50.011 ], [ 4.817, 50.015 ], [ 4.818, 50.02 ], [ 4.823, 50.022 ], [ 4.82, 50.026 ], [ 4.828, 50.03 ], [ 4.83, 50.034 ], [ 4.842, 50.039 ], [ 4.841, 50.046 ], [ 4.829, 50.048 ], [ 4.827, 50.051 ], [ 4.829, 50.058 ], [ 4.82, 50.061 ], [ 4.822, 50.064 ], [ 4.819, 50.066 ], [ 4.838, 50.067 ], [ 4.843, 50.078 ], [ 4.841, 50.083 ], [ 4.847, 50.084 ], [ 4.842, 50.092 ], [ 4.837, 50.093 ], [ 4.849, 50.098 ], [ 4.85, 50.101 ], [ 4.858, 50.1 ], [ 4.862, 50.098 ], [ 4.86, 50.093 ], [ 4.872, 50.088 ], [ 4.876, 50.094 ], [ 4.867, 50.097 ], [ 4.874, 50.108 ], [ 4.867, 50.119 ], [ 4.871, 50.125 ], [ 4.878, 50.127 ], [ 4.878, 50.132 ], [ 4.887, 50.131 ], [ 4.897, 50.138 ], [ 4.895, 50.14 ], [ 4.881, 50.141 ], [ 4.883, 50.144 ], [ 4.878, 50.154 ], [ 4.832, 50.153 ], [ 4.824, 50.162 ], [ 4.825, 50.169 ], [ 4.807, 50.153 ], [ 4.762, 50.136 ], [ 4.756, 50.122 ], [ 4.748, 50.122 ], [ 4.753, 50.116 ], [ 4.752, 50.112 ], [ 4.716, 50.101 ], [ 4.713, 50.097 ], [ 4.702, 50.096 ], [ 4.692, 50.084 ], [ 4.688, 50.073 ], [ 4.68, 50.068 ], [ 4.686, 50.057 ], [ 4.697, 50.059 ], [ 4.7, 50.053 ], [ 4.695, 50.048 ], [ 4.697, 50.043 ], [ 4.688, 50.029 ], [ 4.685, 50.027 ], [ 4.687, 50.024 ], [ 4.686, 50.014 ], [ 4.689, 50.011 ], [ 4.685, 50.007 ], [ 4.693, 49.995 ], [ 4.667, 49.997 ], [ 4.664, 49.994 ], [ 4.633, 49.987 ], [ 4.582, 49.984 ], [ 4.573, 49.98 ], [ 4.572, 49.975 ], [ 4.565, 49.97 ], [ 4.541, 49.97 ], [ 4.532, 49.963 ], [ 4.524, 49.95 ], [ 4.519, 49.952 ], [ 4.511, 49.947 ], [ 4.481, 49.948 ] ] ] } }
]
}
