{
"type": "FeatureCollection",
"name": "regions",
"crs": { "type": "name", "properties": { "name": "urn:ogc:def:crs:OGC:1.3:CRS84" } },
"xy_coordinate_resolution": 0.001,
"features": [
{ "type": "Feature", "properties": { "nis": "02000" }, "geometry": { "type": "MultiPolygon", "coordinates": [ [ [ [ 2.87, 50.713 ], [ 2.863, 50.708 ], [ 2.848, 50.723 ], [ 2.819, 50.716 ], [ 2.79, 50.726 ], [ 2.783, 50.752 ], [ 2.766, 50.755 ], [ 2.757, 50.763 ], [ 2.761, 50.772 ], [ 2.73, 50.788 ], [ 2.721, 50.802 ], [ 2.724, 50.811 ], [ 2.679, 50.813 ], [ 2.669, 50.823 ], [ 2.656, 50.814 ], [ 2.635, 50.813 ], [ 2.617, 50.848 ], [ 2.599, 50.849 ], [ 2.613, 50.868 ], [ 2.604, 50.886 ], [ 2.608, 50.91 ], [ 2.59, 50.919 ], [ 2.633, 50.946 ], [ 2.611, 50.974 ], [ 2.607, 50.991 ], [ 2.574, 51.003 ], [ 2.563, 51.065 ], [ 2.541, 51.094 ], [ 2.754, 51.168 ], [ 2.916, 51.241 ], [ 2.957, 51.252 ], [ 3.081, 51.306 ], [ 3.152, 51.327 ], [ 3.168, 51.336 ], [ 3.17, 51.352 ], [ 3.186, 51.363 ], [ 3.219, 51.361 ], [ 3.227, 51.351 ], [ 3.231, 51.356 ], [ 3.254, 51.348 ], [ 3.363, 51.373 ], [ 3.385, 51.334 ], [ 3.358, 51.315 ], [ 3.378, 51.303 ], [ 3.366, 51.298 ], [ 3.381, 51.287 ], [ 3.376, 51.277 ], [ 3.407, 51.257 ], [ 3.417, 51.26 ], [ 3.427, 51.245 ], [ 3.528, 51.246 ], [ 3.515, 51.287 ], [ 3.538, 51.284 ], [ 3.563, 51.296 ], [ 3.582, 51.287 ], [ 3.588, 51.293 ], [ 3.581, 51.298 ], [ 3.59, 51.306 ], [ 3.621, 51.293 ], [ 3.658, 51.29 ], [ 3.694, 51.276 ], [ 3.752, 51.27 ], [ 3.762, 51.262 ], [ 3.795, 51.256 ], [ 3.788, 51.226 ], [ 3.79, 51.216 ], [ 3.799, 51.211 ], [ 3.86, 51.211 ], [ 3.889, 51.223 ], [ 3.89, 51.214 ], [ 3.878, 51.208 ], [ 3.886, 51.2 ], [ 3.919, 51.208 ], [ 3.916, 51.215 ], [ 3.929, 51.22 ], [ 3.936, 51.212 ], [ 3.959, 51.216 ], [ 3.964, 51.224 ], [ 4.015, 51.245 ], [ 4.062, 51.245 ], [ 4.166, 51.293 ], [ 4.242, 51.354 ], [ 4.227, 51.36 ], [ 4.218, 51.374 ], [ 4.335, 51.378 ], [ 4.341, 51.358 ], [ 4.385, 51.354 ], [ 4.431, 51.364 ], [ 4.425, 51.371 ], [ 4.432, 51.375 ], [ 4.384, 51.421 ], [ 4.395, 51.427 ], [ 4.397, 51.442 ], [ 4.379, 51.447 ], [ 4.476, 51.478 ], [ 4.538, 51.482 ], [ 4.548, 51.473 ], [ 4.53, 51.45 ], [ 4.535, 51.423 ], [ 4.575, 51.433 ], [ 4.641, 51.422 ], [ 4.67, 51.426 ], [ 4.667, 51.444 ], [ 4.693, 51.452 ], [ 4.703, 51.467 ], [ 4.717, 51.469 ], [ 4.753, 51.5 ], [ 4.781, 51.504 ], [ 4.816, 51.495 ], [ 4.821, 51.483 ], [ 4.842, 51.481 ], [ 4.836, 51.461 ], [ 4.844, 51.459 ], [ 4.823, 51.449 ], [ 4.828, 51.422 ], [ 4.841, 51.422 ], [ 4.836, 51.417 ], [ 4.787, 51.433 ], [ 4.767, 51.431 ], [ 4.771, 51.415 ], [ 4.789, 51.409 ], [ 4.866, 51.413 ], [ 4.867, 51.414 ], [ 4.868, 51.413 ], [ 4.872, 51.413 ], [ 4.9, 51.415 ], [ 4.924, 51.398 ], [ 4.914, 51.395 ], [ 4.921, 51.394 ], [ 5.005, 51.444 ], [ 5.011, 51.472 ], [ 5.036, 51.487 ], [ 5.046, 51.471 ], [ 5.079, 51.471 ], [ 5.105, 51.431 ], [ 5.071, 51.393 ], [ 5.132, 51.347 ], [ 5.134, 51.315 ], [ 5.163, 51.31 ], [ 5.2, 51.323 ], [ 5.242, 51.305 ], [ 5.226, 51.268 ], [ 5.238, 51.261 ], [ 5.263, 51.267 ], [ 5.336, 51.263 ], [ 5.346, 51.276 ], [ 5.417, 51.262 ], [ 5.442, 51.282 ], [ 5.465, 51.285 ], [ 5.483, 51.3 ], [ 5.516, 51.295 ], [ 5.556, 51.266 ], [ 5.56, 51.222 ], [ 5.653, 51.198 ], [ 5.658, 51.185 ], [ 5.709, 51.18 ], [ 5.749, 51.189 ], [ 5.777, 51.178 ], [ 5.773, 51.173 ], [ 5.78, 51.172 ], [ 5.77, 51.169 ], [ 5.779, 51.163 ], [ 5.778, 51.151 ], [ 5.805, 51.163 ], [ 5.815, 51.159 ], [ 5.824, 51.168 ], [ 5.856, 51.145 ], [ 5.81, 51.118 ], [ 5.811, 51.109 ], [ 5.83, 51.106 ], [ 5.832, 51.097 ], [ 5.796, 51.091 ], [ 5.805, 51.08 ], [ 5.797, 51.072 ], [ 5.8, 51.061 ], [ 5.774, 51.062 ], [ 5.758, 51.035 ], [ 5.776, 51.023 ], [ 5.766, 51.011 ], [ 5.768, 51.0 ], [ 5.72, 50.962 ], [ 5.731, 50.955 ], [ 5.751, 50.961 ], [ 5.759, 50.952 ], [ 5.747, 50.947 ], [ 5.728, 50.926 ], [ 5.723, 50.909 ], [ 5.699, 50.911 ], [ 5.679, 50.88 ], [ 5.644, 50.871 ], [ 5.649, 50.868 ], [ 5.642, 50.864 ], [ 5.639, 50.848 ], [ 5.651, 50.832 ], [ 5.649, 50.827 ], [ 5.688, 50.812 ], [ 5.687, 50.804 ], [ 5.653, 50.805 ], [ 5.638, 50.787 ], [ 5.616, 50.784 ], [ 5.606, 50.779 ], [ 5.61, 50.775 ], [ 5.523, 50.759 ], [ 5.519, 50.747 ], [ 5.524, 50.742 ], [ 5.479, 50.724 ], [ 5.476, 50.734 ], [ 5.462, 50.739 ], [ 5.463, 50.731 ], [ 5.453, 50.721 ], [ 5.421, 50.719 ], [ 5.394, 50.735 ], [ 5.39, 50.748 ], [ 5.376, 50.742 ], [ 5.35, 50.746 ], [ 5.314, 50.729 ], [ 5.304, 50.716 ], [ 5.276, 50.729 ], [ 5.257, 50.715 ], [ 5.241, 50.717 ], [ 5.237, 50.727 ], [ 5.228, 50.718 ], [ 5.17, 50.722 ], [ 5.168, 50.716 ], [ 5.181, 50.705 ], [ 5.149, 50.695 ], [ 5.119, 50.708 ], [ 5.07, 50.706 ], [ 5.044, 50.723 ], [ 5.048, 50.739 ], [ 5.02, 50.751 ], [ 5.005, 50.766 ], [ 4.97, 50.768 ], [ 4.954, 50.751 ], [ 4.925, 50.743 ], [ 4.906, 50.75 ], [ 4.911, 50.756 ], [ 4.903, 50.761 ], [ 4.909, 50.769 ], [ 4.899, 50.773 ], [ 4.886, 50.763 ], [ 4.847, 50.768 ], [ 4.835, 50.763 ], [ 4.835, 50.776 ], [ 4.812, 50.776 ], [ 4.791, 50.799 ], [ 4.749, 50.807 ], [ 4.736, 50.8 ], [ 4.726, 50.803 ], [ 4.715, 50.789 ], [ 4.71, 50.796 ], [ 4.692, 50.788 ], [ 4.686, 50.795 ], [ 4.667, 50.792 ], [ 4.642, 50.799 ], [ 4.647, 50.786 ], [ 4.636, 50.772 ], [ 4.655, 50.755 ], [ 4.634, 50.743 ], [ 4.605, 50.741 ], [ 4.598, 50.746 ], [ 4.601, 50.756 ], [ 4.596, 50.764 ], [ 4.579, 50.758 ], [ 4.576, 50.747 ], [ 4.53, 50.741 ], [ 4.525, 50.738 ], [ 4.532, 50.731 ], [ 4.523, 50.727 ], [ 4.509, 50.731 ], [ 4.502, 50.744 ], [ 4.492, 50.743 ], [ 4.502, 50.754 ], [ 4.464, 50.755 ], [ 4.424, 50.736 ], [ 4.372, 50.729 ], [ 4.373, 50.716 ], [ 4.352, 50.715 ], [ 4.334, 50.734 ], [ 4.324, 50.724 ], [ 4.334, 50.728 ], [ 4.335, 50.715 ], [ 4.314, 50.72 ], [ 4.308, 50.7 ], [ 4.29, 50.694 ], [ 4.262, 50.7 ], [ 4.247, 50.69 ], [ 4.209, 50.708 ], [ 4.182, 50.707 ], [ 4.172, 50.722 ], [ 4.156, 50.729 ], [ 4.142, 50.729 ], [ 4.135, 50.716 ], [ 4.109, 50.716 ], [ 4.099, 50.706 ], [ 4.086, 50.714 ], [ 4.072, 50.712 ], [ 4.059, 50.694 ], [ 4.052, 50.702 ], [ 4.032, 50.694 ], [ 4.01, 50.699 ], [ 3.988, 50.687 ], [ 3.931, 50.689 ], [ 3.927, 50.695 ], [ 3.912, 50.691 ], [ 3.913, 50.699 ], [ 3.902, 50.711 ], [ 3.889, 50.713 ], [ 3.897, 50.729 ], [ 3.893, 50.735 ], [ 3.899, 50.737 ], [ 3.884, 50.75 ], [ 3.858, 50.752 ], [ 3.838, 50.741 ], [ 3.815, 50.751 ], [ 3.776, 50.748 ], [ 3.753, 50.772 ], [ 3.759, 50.78 ], [ 3.714, 50.768 ], [ 3.71, 50.782 ], [ 3.678, 50.772 ], [ 3.669, 50.764 ], [ 3.673, 50.759 ], [ 3.642, 50.738 ], [ 3.64, 50.722 ], [ 3.624, 50.723 ], [ 3.61, 50.732 ], [ 3.542, 50.733 ], [ 3.548, 50.747 ], [ 3.539, 50.764 ], [ 3.493, 50.758 ], [ 3.46, 50.762 ], [ 3.455, 50.771 ], [ 3.454, 50.759 ], [ 3.432, 50.757 ], [ 3.435, 50.75 ], [ 3.427, 50.747 ], [ 3.405, 50.746 ], [ 3.395, 50.729 ], [ 3.369, 50.726 ], [ 3.361, 50.71 ], [ 3.324, 50.722 ], [ 3.329, 50.731 ], [ 3.306, 50.755 ], [ 3.265, 50.751 ], [ 3.221, 50.766 ], [ 3.176, 50.756 ], [ 3.15, 50.79 ], [ 3.127, 50.786 ], [ 3.113, 50.795 ], [ 3.088, 50.773 ], [ 3.057, 50.781 ], [ 3.024, 50.771 ], [ 3.019, 50.774 ], [ 3.03, 50.78 ], [ 3.013, 50.784 ], [ 3.009, 50.795 ], [ 3.015, 50.803 ], [ 3.0, 50.811 ], [ 2.937, 50.794 ], [ 2.958, 50.782 ], [ 2.96, 50.774 ], [ 2.919, 50.764 ], [ 2.923, 50.757 ], [ 2.894, 50.753 ], [ 2.878, 50.762 ], [ 2.878, 50.754 ], [ 2.87, 50.76 ], [ 2.842, 50.751 ], [ 2.853, 50.74 ], [ 2.845, 50.733 ], [ 2.87, 50.713 ] ], [ [ 4.87, 51.411 ], [ 4.873, 51.412 ], [ 4.872, 51.413 ], [ 4.87, 51.411 ] ], [ [ 4.332, 50.901 ], [ 4.294, 50.889 ], [ 4.299, 50.88 ], [ 4.279, 50.866 ], [ 4.29, 50.856 ], [ 4.283, 50.854 ], [ 4.288, 50.848 ], [ 4.283, 50.838 ], [ 4.256, 50.835 ], [ 4.245, 50.818 ], [ 4.284, 50.807 ], [ 4.306, 50.812 ], [ 4.305, 50.799 ], [ 4.317, 50.796 ], [ 4.331, 50.776 ], [ 4.381, 50.769 ], [ 4.383, 50.764 ], [ 4.482, 50.793 ], [ 4.447, 50.808 ], [ 4.453, 50.808 ], [ 4.458, 50.81 ], [ 4.448, 50.811 ], [ 4.455, 50.818 ], [ 4.477, 50.82 ], [ 4.461, 50.852 ], [ 4.421, 50.868 ], [ 4.437, 50.879 ], [ 4.427, 50.89 ], [ 4.433, 50.895 ], [ 4.428, 50.9 ], [ 4.403, 50.914 ], [ 4.388, 50.91 ], [ 4.378, 50.897 ], [ 4.332, 50.901 ] ] ], [ [ [ 4.841, 51.418 ], [ 4.839, 51.418 ], [ 4.84, 51.419 ], [ 4.841, 51.418 ] ] ], [ [ [ 4.89, 51.425 ], [ 4.892, 51.424 ], [ 4.889, 51.423 ], [ 4.89, 51.425 ] ] ], [ [ [ 4.836, 51.448 ], [ 4.836, 51.449 ], [ 4.837, 51.448 ], [ 4.836, 51.448 ] ] ], [ [ [ 4.927, 51.408 ], [ 4.936, 51.409 ], [ 4.936, 51.405 ], [ 4.927, 51.408 ] ] ], [ [ [ 4.94, 51.44 ], [ 4.94, 51.438 ], [ 4.936, 51.429 ], [ 4.915, 51.435 ], [ 4.921, 51.437 ], [ 4.919, 51.447 ], [ 4.926, 51.445 ], [ 4.928, 51.444 ], [ 4.928, 51.439 ], [ 4.936, 51.446 ], [ 4.94, 51.44 ] ], [ [ 4.933, 51.436 ], [ 4.931, 51.436 ], [ 4.931, 51.435 ], [ 4.933, 51.436 ] ], [ [ 4.924, 51.442 ], [ 4.922, 51.439 ], [ 4.922, 51.438 ], [ 4.924, 51.442 ] ], [ [ 4.935, 51.438 ], [ 4.935, 51.436 ], [ 4.937, 51.436 ], [ 4.935, 51.438 ] ], [ [ 4.934, 51.433 ], [ 4.934, 51.432 ], [ 4.935, 51.432 ], [ 4.934, 51.433 ] ] ], [ [ [ 4.942, 51.436 ], [ 4.943, 51.435 ], [ 4.941, 51.435 ], [ 4.942, 51.436 ] ] ], [ [ [ 4.942, 51.438 ], [ 4.941, 51.438 ], [ 4.941, 51.439 ], [ 4.942, 51.438 ] ] ], [ [ [ 4.95, 51.444 ], [ 4.944, 51.444 ], [ 4.948, 51.446 ], [ 4.95, 51.444 ] ] ], [ [ [ 4.926, 51.445 ], [ 4.924, 51.446 ], [ 4.927, 51.445 ], [ 4.926, 51.445 ] ] ], [ [ [ 4.934, 51.447 ], [ 4.932, 51.447 ], [ 4.932, 51.448 ], [ 4.934, 51.447 ] ] ], [ [ [ 4.928, 51.448 ], [ 4.927, 51.449 ], [ 4.928, 51.449 ], [ 4.928, 51.448 ] ] ], [ [ [ 4.945, 51.453 ], [ 4.949, 51.454 ], [ 4.953, 51.452 ], [ 4.942, 51.446 ], [ 4.941, 51.445 ], [ 4.94, 51.445 ], [ 4.933, 51.45 ], [ 4.945, 51.453 ] ] ], [ [ [ 4.931, 51.45 ], [ 4.932, 51.449 ], [ 4.93, 51.449 ], [ 4.931, 51.45 ] ] ], [ [ [ 4.949, 51.454 ], [ 4.949, 51.455 ], [ 4.95, 51.455 ], [ 4.95, 51.454 ], [ 4.949, 51.454 ] ] ], [ [ [ 4.942, 51.456 ], [ 4.942, 51.455 ], [ 4.941, 51.455 ], [ 4.942, 51.456 ] ] ], [ [ [ 5.813, 50.715 ], [ 5.802, 50.736 ], [ 5.771, 50.751 ], [ 5.749, 50.745 ], [ 5.744, 50.754 ], [ 5.733, 50.755 ], [ 5.722, 50.746 ], [ 5.682, 50.758 ], [ 5.699, 50.755 ], [ 5.72, 50.765 ], [ 5.739, 50.757 ], [ 5.747, 50.77 ], [ 5.766, 50.783 ], [ 5.777, 50.783 ], [ 5.785, 50.767 ], [ 5.793, 50.77 ], [ 5.808, 50.756 ], [ 5.845, 50.765 ], [ 5.849, 50.753 ], [ 5.886, 50.77 ], [ 5.891, 50.751 ], [ 5.911, 50.735 ], [ 5.883, 50.71 ], [ 5.813, 50.715 ] ] ] ] } },
{ "type": "Feature", "properties": { "nis": "03000" }, "geometry": { "type": "MultiPolygon", "coordinates": [ [ [ [ 3.376, 50.491 ], [ 3.362, 50.504 ], [ 3.33, 50.508 ], [ 3.321, 50.519 ], [ 3.286, 50.528 ], [ 3.276, 50.559 ], [ 3.285, 50.562 ], [ 3.278, 50.564 ], [ 3.28, 50.596 ], [ 3.255, 50.623 ], [ 3.259, 50.63 ], [ 3.244, 50.641 ], [ 3.25, 50.647 ], [ 3.24, 50.659 ], [ 3.241, 50.669 ], [ 3.265, 50.677 ], [ 3.253, 50.69 ], [ 3.262, 50.691 ], [ 3.261, 50.701 ], [ 3.245, 50.713 ], [ 3.206, 50.712 ], [ 3.21, 50.717 ], [ 3.191, 50.726 ], [ 3.2, 50.735 ], [ 3.178, 50.756 ], [ 3.221, 50.766 ], [ 3.265, 50.751 ], [ 3.306, 50.755 ], [ 3.329, 50.731 ], [ 3.324, 50.722 ], [ 3.361, 50.71 ], [ 3.369, 50.726 ], [ 3.395, 50.729 ], [ 3.405, 50.746 ], [ 3.427, 50.747 ], [ 3.435, 50.75 ], [ 3.432, 50.757 ], [ 3.454, 50.759 ], [ 3.455, 50.771 ], [ 3.46, 50.762 ], [ 3.493, 50.758 ], [ 3.539, 50.764 ], [ 3.548, 50.747 ], [ 3.542, 50.733 ], [ 3.61, 50.732 ], [ 3.631, 50.721 ], [ 3.64, 50.722 ], [ 3.642, 50.738 ], [ 3.673, 50.759 ], [ 3.669, 50.764 ], [ 3.678, 50.772 ], [ 3.71, 50.782 ], [ 3.716, 50.768 ], [ 3.759, 50.78 ], [ 3.753, 50.772 ], [ 3.776, 50.748 ], [ 3.815, 50.751 ], [ 3.838, 50.741 ], [ 3.858, 50.752 ], [ 3.886, 50.749 ], [ 3.899, 50.737 ], [ 3.893, 50.735 ], [ 3.897, 50.729 ], [ 3.889, 50.713 ], [ 3.902, 50.711 ], [ 3.913, 50.699 ], [ 3.912, 50.691 ], [ 3.927, 50.695 ], [ 3.931, 50.689 ], [ 3.988, 50.687 ], [ 4.01, 50.699 ], [ 4.032, 50.694 ], [ 4.052, 50.702 ], [ 4.059, 50.694 ], [ 4.072, 50.712 ], [ 4.086, 50.714 ], [ 4.099, 50.706 ], [ 4.109, 50.716 ], [ 4.135, 50.716 ], [ 4.142, 50.729 ], [ 4.156, 50.729 ], [ 4.172, 50.722 ], [ 4.182, 50.707 ], [ 4.209, 50.708 ], [ 4.247, 50.69 ], [ 4.262, 50.7 ], [ 4.29, 50.694 ], [ 4.308, 50.7 ], [ 4.314, 50.72 ], [ 4.335, 50.715 ], [ 4.334, 50.728 ], [ 4.324, 50.724 ], [ 4.334, 50.734 ], [ 4.352, 50.715 ], [ 4.373, 50.716 ], [ 4.372, 50.729 ], [ 4.424, 50.736 ], [ 4.464, 50.755 ], [ 4.502, 50.754 ], [ 4.492, 50.743 ], [ 4.502, 50.744 ], [ 4.509, 50.731 ], [ 4.523, 50.727 ], [ 4.532, 50.731 ], [ 4.525, 50.738 ], [ 4.53, 50.741 ], [ 4.576, 50.747 ], [ 4.579, 50.758 ], [ 4.596, 50.764 ], [ 4.605, 50.741 ], [ 4.634, 50.743 ], [ 4.655, 50.755 ], [ 4.636, 50.772 ], [ 4.647, 50.786 ], [ 4.642, 50.799 ], [ 4.667, 50.792 ], [ 4.686, 50.795 ], [ 4.692, 50.788 ], [ 4.71, 50.796 ], [ 4.715, 50.789 ], [ 4.726, 50.803 ], [ 4.736, 50.8 ], [ 4.749, 50.807 ], [ 4.791, 50.799 ], [ 4.812, 50.776 ], [ 4.835, 50.776 ], [ 4.835, 50.763 ], [ 4.847, 50.768 ], [ 4.886, 50.763 ], [ 4.899, 50.773 ], [ 4.909, 50.769 ], [ 4.903, 50.761 ], [ 4.911, 50.756 ], [ 4.906, 50.75 ], [ 4.925, 50.743 ], [ 4.954, 50.751 ], [ 4.97, 50.768 ], [ 5.005, 50.766 ], [ 5.02, 50.751 ], [ 5.048, 50.739 ], [ 5.044, 50.723 ], [ 5.07, 50.706 ], [ 5.096, 50.703 ], [ 5.109, 50.71 ], [ 5.165, 50.696 ], [ 5.181, 50.705 ], [ 5.168, 50.716 ], [ 5.17, 50.722 ], [ 5.228, 50.718 ], [ 5.237, 50.727 ], [ 5.241, 50.717 ], [ 5.257, 50.715 ], [ 5.276, 50.729 ], [ 5.304, 50.716 ], [ 5.314, 50.729 ], [ 5.35, 50.746 ], [ 5.376, 50.742 ], [ 5.39, 50.748 ], [ 5.394, 50.735 ], [ 5.421, 50.719 ], [ 5.453, 50.721 ], [ 5.463, 50.731 ], [ 5.462, 50.739 ], [ 5.476, 50.734 ], [ 5.479, 50.724 ], [ 5.524, 50.742 ], [ 5.519, 50.747 ], [ 5.523, 50.759 ], [ 5.61, 50.775 ], [ 5.606, 50.779 ], [ 5.616, 50.784 ], [ 5.638, 50.787 ], [ 5.653, 50.805 ], [ 5.686, 50.804 ], [ 5.692, 50.812 ], [ 5.699, 50.78 ], [ 5.682, 50.759 ], [ 5.691, 50.751 ], [ 5.722, 50.746 ], [ 5.737, 50.755 ], [ 5.749, 50.745 ], [ 5.771, 50.751 ], [ 5.802, 50.736 ], [ 5.813, 50.715 ], [ 5.861, 50.717 ], [ 5.883, 50.71 ], [ 5.911, 50.735 ], [ 5.892, 50.755 ], [ 5.914, 50.756 ], [ 5.916, 50.75 ], [ 5.961, 50.762 ], [ 5.983, 50.753 ], [ 6.02, 50.755 ], [ 6.04, 50.746 ], [ 6.033, 50.731 ], [ 6.04, 50.718 ], [ 6.044, 50.728 ], [ 6.119, 50.72 ], [ 6.123, 50.707 ], [ 6.166, 50.662 ], [ 6.184, 50.648 ], [ 6.184, 50.647 ], [ 6.183, 50.647 ], [ 6.167, 50.644 ], [ 6.183, 50.632 ], [ 6.176, 50.627 ], [ 6.182, 50.624 ], [ 6.194, 50.634 ], [ 6.269, 50.625 ], [ 6.274, 50.63 ], [ 6.269, 50.619 ], [ 6.248, 50.604 ], [ 6.25, 50.598 ], [ 6.236, 50.566 ], [ 6.241, 50.587 ], [ 6.225, 50.59 ], [ 6.203, 50.569 ], [ 6.174, 50.557 ], [ 6.178, 50.542 ], [ 6.197, 50.536 ], [ 6.198, 50.539 ], [ 6.197, 50.53 ], [ 6.196, 50.531 ], [ 6.187, 50.527 ], [ 6.207, 50.523 ], [ 6.227, 50.494 ], [ 6.27, 50.505 ], [ 6.298, 50.497 ], [ 6.309, 50.501 ], [ 6.351, 50.488 ], [ 6.337, 50.475 ], [ 6.344, 50.469 ], [ 6.34, 50.462 ], [ 6.372, 50.456 ], [ 6.377, 50.439 ], [ 6.367, 50.42 ], [ 6.366, 50.402 ], [ 6.343, 50.38 ], [ 6.408, 50.335 ], [ 6.406, 50.323 ], [ 6.359, 50.313 ], [ 6.364, 50.305 ], [ 6.343, 50.318 ], [ 6.335, 50.316 ], [ 6.333, 50.323 ], [ 6.306, 50.32 ], [ 6.309, 50.312 ], [ 6.296, 50.309 ], [ 6.298, 50.302 ], [ 6.286, 50.294 ], [ 6.291, 50.277 ], [ 6.278, 50.266 ], [ 6.216, 50.257 ], [ 6.196, 50.237 ], [ 6.176, 50.235 ], [ 6.177, 50.226 ], [ 6.166, 50.22 ], [ 6.189, 50.205 ], [ 6.184, 50.192 ], [ 6.193, 50.182 ], [ 6.163, 50.178 ], [ 6.16, 50.172 ], [ 6.146, 50.177 ], [ 6.148, 50.17 ], [ 6.14, 50.168 ], [ 6.148, 50.16 ], [ 6.132, 50.153 ], [ 6.153, 50.15 ], [ 6.155, 50.142 ], [ 6.138, 50.13 ], [ 6.112, 50.136 ], [ 6.126, 50.15 ], [ 6.115, 50.155 ], [ 6.12, 50.163 ], [ 6.102, 50.171 ], [ 6.079, 50.171 ], [ 6.079, 50.157 ], [ 6.064, 50.153 ], [ 6.032, 50.163 ], [ 6.025, 50.183 ], [ 5.964, 50.173 ], [ 5.967, 50.155 ], [ 5.958, 50.151 ], [ 5.961, 50.131 ], [ 5.895, 50.112 ], [ 5.887, 50.079 ], [ 5.861, 50.069 ], [ 5.854, 50.059 ], [ 5.87, 50.046 ], [ 5.856, 50.036 ], [ 5.86, 50.029 ], [ 5.819, 50.013 ], [ 5.822, 49.999 ], [ 5.84, 49.989 ], [ 5.836, 49.979 ], [ 5.812, 49.972 ], [ 5.807, 49.962 ], [ 5.775, 49.961 ], [ 5.77, 49.95 ], [ 5.775, 49.938 ], [ 5.764, 49.931 ], [ 5.764, 49.916 ], [ 5.736, 49.897 ], [ 5.778, 49.884 ], [ 5.784, 49.873 ], [ 5.774, 49.867 ], [ 5.755, 49.873 ], [ 5.761, 49.856 ], [ 5.746, 49.853 ], [ 5.758, 49.847 ], [ 5.748, 49.847 ], [ 5.75, 49.84 ], [ 5.739, 49.834 ], [ 5.748, 49.825 ], [ 5.743, 49.82 ], [ 5.751, 49.815 ], [ 5.755, 49.791 ], [ 5.79, 49.796 ], [ 5.818, 49.754 ], [ 5.831, 49.75 ], [ 5.826, 49.724 ], [ 5.865, 49.727 ], [ 5.887, 49.709 ], [ 5.867, 49.694 ], [ 5.862, 49.68 ], [ 5.911, 49.662 ], [ 5.902, 49.651 ], [ 5.908, 49.639 ], [ 5.884, 49.633 ], [ 5.877, 49.608 ], [ 5.848, 49.596 ], [ 5.85, 49.587 ], [ 5.871, 49.588 ], [ 5.866, 49.581 ], [ 5.873, 49.574 ], [ 5.843, 49.561 ], [ 5.842, 49.553 ], [ 5.819, 49.546 ], [ 5.771, 49.563 ], [ 5.758, 49.561 ], [ 5.758, 49.543 ], [ 5.747, 49.539 ], [ 5.734, 49.546 ], [ 5.705, 49.539 ], [ 5.664, 49.553 ], [ 5.643, 49.551 ], [ 5.616, 49.527 ], [ 5.621, 49.52 ], [ 5.611, 49.506 ], [ 5.591, 49.523 ], [ 5.557, 49.529 ], [ 5.541, 49.515 ], [ 5.484, 49.507 ], [ 5.472, 49.497 ], [ 5.465, 49.499 ], [ 5.466, 49.509 ], [ 5.447, 49.518 ], [ 5.467, 49.526 ], [ 5.465, 49.539 ], [ 5.441, 49.552 ], [ 5.457, 49.567 ], [ 5.438, 49.57 ], [ 5.428, 49.596 ], [ 5.398, 49.616 ], [ 5.352, 49.631 ], [ 5.34, 49.617 ], [ 5.312, 49.612 ], [ 5.305, 49.63 ], [ 5.332, 49.654 ], [ 5.27, 49.696 ], [ 5.243, 49.685 ], [ 5.232, 49.692 ], [ 5.218, 49.688 ], [ 5.206, 49.696 ], [ 5.164, 49.693 ], [ 5.166, 49.712 ], [ 5.154, 49.719 ], [ 5.144, 49.709 ], [ 5.126, 49.712 ], [ 5.119, 49.739 ], [ 5.094, 49.764 ], [ 5.063, 49.762 ], [ 5.009, 49.782 ], [ 4.995, 49.801 ], [ 4.957, 49.802 ], [ 4.943, 49.79 ], [ 4.906, 49.786 ], [ 4.852, 49.793 ], [ 4.876, 49.819 ], [ 4.869, 49.823 ], [ 4.867, 49.842 ], [ 4.857, 49.841 ], [ 4.847, 49.868 ], [ 4.863, 49.867 ], [ 4.878, 49.895 ], [ 4.887, 49.899 ], [ 4.877, 49.904 ], [ 4.89, 49.909 ], [ 4.882, 49.922 ], [ 4.859, 49.931 ], [ 4.847, 49.949 ], [ 4.791, 49.958 ], [ 4.79, 49.968 ], [ 4.794, 49.982 ], [ 4.807, 49.984 ], [ 4.819, 49.995 ], [ 4.82, 50.026 ], [ 4.842, 50.039 ], [ 4.819, 50.066 ], [ 4.838, 50.067 ], [ 4.841, 50.083 ], [ 4.847, 50.084 ], [ 4.837, 50.093 ], [ 4.85, 50.101 ], [ 4.872, 50.088 ], [ 4.876, 50.094 ], [ 4.867, 50.097 ], [ 4.874, 50.108 ], [ 4.867, 50.119 ], [ 4.878, 50.132 ], [ 4.897, 50.138 ], [ 4.881, 50.141 ], [ 4.878, 50.154 ], [ 4.832, 50.153 ], [ 4.824, 50.169 ], [ 4.807, 50.153 ], [ 4.762, 50.136 ], [ 4.756, 50.122 ], [ 4.748, 50.122 ], [ 4.752, 50.112 ], [ 4.702, 50.096 ], [ 4.68, 50.067 ], [ 4.7, 50.053 ], [ 4.685, 50.027 ], [ 4.685, 50.007 ], [ 4.693, 49.995 ], [ 4.582, 49.984 ], [ 4.565, 49.97 ], [ 4.541, 49.97 ], [ 4.524, 49.95 ], [ 4.481, 49.948 ], [ 4.445, 49.937 ], [ 4.381, 49.954 ], [ 4.35, 49.953 ], [ 4.336, 49.963 ], [ 4.31, 49.97 ], [ 4.197, 49.955 ], [ 4.197, 49.968 ], [ 4.173, 49.977 ], [ 4.142, 49.978 ], [ 4.163, 49.995 ], [ 4.142, 50.006 ], [ 4.136, 50.02 ], [ 4.162, 50.049 ], [ 4.194, 50.049 ], [ 4.199, 50.057 ], [ 4.224, 50.064 ], [ 4.231, 50.073 ], [ 4.225, 50.086 ], [ 4.202, 50.1 ], [ 4.207, 50.105 ], [ 4.197, 50.106 ], [ 4.204, 50.116 ], [ 4.199, 50.134 ], [ 4.157, 50.135 ], [ 4.154, 50.128 ], [ 4.127, 50.136 ], [ 4.155, 50.163 ], [ 4.156, 50.172 ], [ 4.148, 50.174 ], [ 4.16, 50.202 ], [ 4.15, 50.214 ], [ 4.173, 50.217 ], [ 4.182, 50.232 ], [ 4.22, 50.252 ], [ 4.208, 50.273 ], [ 4.177, 50.275 ], [ 4.176, 50.284 ], [ 4.163, 50.289 ], [ 4.149, 50.276 ], [ 4.163, 50.272 ], [ 4.168, 50.259 ], [ 4.136, 50.257 ], [ 4.136, 50.275 ], [ 4.124, 50.273 ], [ 4.126, 50.288 ], [ 4.118, 50.303 ], [ 4.11, 50.302 ], [ 4.097, 50.314 ], [ 4.079, 50.31 ], [ 4.078, 50.321 ], [ 4.055, 50.333 ], [ 4.054, 50.339 ], [ 4.036, 50.344 ], [ 4.024, 50.359 ], [ 3.986, 50.342 ], [ 3.973, 50.348 ], [ 3.971, 50.343 ], [ 3.966, 50.341 ], [ 3.968, 50.35 ], [ 3.901, 50.327 ], [ 3.886, 50.327 ], [ 3.887, 50.341 ], [ 3.857, 50.342 ], [ 3.847, 50.353 ], [ 3.824, 50.353 ], [ 3.815, 50.345 ], [ 3.807, 50.355 ], [ 3.747, 50.351 ], [ 3.734, 50.343 ], [ 3.738, 50.341 ], [ 3.73, 50.33 ], [ 3.732, 50.312 ], [ 3.71, 50.32 ], [ 3.72, 50.305 ], [ 3.71, 50.303 ], [ 3.684, 50.32 ], [ 3.694, 50.322 ], [ 3.675, 50.333 ], [ 3.677, 50.34 ], [ 3.665, 50.348 ], [ 3.667, 50.361 ], [ 3.657, 50.369 ], [ 3.674, 50.389 ], [ 3.675, 50.402 ], [ 3.67, 50.437 ], [ 3.658, 50.447 ], [ 3.663, 50.456 ], [ 3.643, 50.463 ], [ 3.633, 50.48 ], [ 3.608, 50.497 ], [ 3.585, 50.491 ], [ 3.568, 50.501 ], [ 3.501, 50.487 ], [ 3.496, 50.499 ], [ 3.516, 50.513 ], [ 3.52, 50.524 ], [ 3.474, 50.534 ], [ 3.454, 50.519 ], [ 3.449, 50.507 ], [ 3.438, 50.511 ], [ 3.376, 50.491 ] ] ], [ [ [ 6.188, 50.665 ], [ 6.191, 50.664 ], [ 6.166, 50.662 ], [ 6.188, 50.665 ] ] ], [ [ [ 6.195, 50.663 ], [ 6.196, 50.659 ], [ 6.192, 50.664 ], [ 6.195, 50.663 ] ] ], [ [ [ 6.197, 50.659 ], [ 6.196, 50.658 ], [ 6.196, 50.659 ], [ 6.197, 50.659 ] ] ], [ [ [ 6.186, 50.641 ], [ 6.185, 50.642 ], [ 6.184, 50.647 ], [ 6.186, 50.641 ] ] ], [ [ [ 6.187, 50.641 ], [ 6.197, 50.641 ], [ 6.189, 50.64 ], [ 6.186, 50.641 ], [ 6.187, 50.641 ] ] ], [ [ [ 6.204, 50.64 ], [ 6.222, 50.641 ], [ 6.221, 50.64 ], [ 6.203, 50.639 ], [ 6.197, 50.641 ], [ 6.204, 50.64 ] ] ], [ [ [ 6.227, 50.648 ], [ 6.226, 50.643 ], [ 6.223, 50.641 ], [ 6.222, 50.641 ], [ 6.227, 50.648 ] ] ], [ [ [ 6.228, 50.649 ], [ 6.23, 50.649 ], [ 6.227, 50.648 ], [ 6.228, 50.649 ] ] ], [ [ [ 6.246, 50.641 ], [ 6.246, 50.64 ], [ 6.234, 50.648 ], [ 6.246, 50.641 ] ] ], [ [ [ 6.262, 50.643 ], [ 6.265, 50.643 ], [ 6.246, 50.641 ], [ 6.262, 50.643 ] ] ], [ [ [ 6.266, 50.642 ], [ 6.274, 50.63 ], [ 6.265, 50.643 ], [ 6.266, 50.642 ] ] ], [ [ [ 6.225, 50.555 ], [ 6.21, 50.554 ], [ 6.211, 50.555 ], [ 6.225, 50.556 ], [ 6.225, 50.555 ] ] ], [ [ [ 6.208, 50.547 ], [ 6.198, 50.54 ], [ 6.21, 50.554 ], [ 6.208, 50.547 ] ] ], [ [ [ 6.199, 50.527 ], [ 6.198, 50.528 ], [ 6.197, 50.53 ], [ 6.199, 50.527 ] ] ], [ [ [ 6.203, 50.526 ], [ 6.207, 50.523 ], [ 6.199, 50.527 ], [ 6.203, 50.526 ] ] ], [ [ [ 2.906, 50.692 ], [ 2.885, 50.706 ], [ 2.87, 50.703 ], [ 2.863, 50.708 ], [ 2.87, 50.713 ], [ 2.842, 50.736 ], [ 2.853, 50.74 ], [ 2.842, 50.751 ], [ 2.87, 50.76 ], [ 2.878, 50.754 ], [ 2.878, 50.762 ], [ 2.894, 50.753 ], [ 2.923, 50.757 ], [ 2.919, 50.764 ], [ 2.96, 50.774 ], [ 2.958, 50.782 ], [ 2.937, 50.794 ], [ 3.0, 50.811 ], [ 3.012, 50.807 ], [ 3.013, 50.784 ], [ 3.03, 50.779 ], [ 2.973, 50.751 ], [ 2.956, 50.754 ], [ 2.939, 50.745 ], [ 2.944, 50.731 ], [ 2.932, 50.728 ], [ 2.924, 50.704 ], [ 2.909, 50.702 ], [ 2.906, 50.692 ] ] ] ] } },
{ "type": "Feature", "properties": { "nis": "04000" }, "geometry": { "type": "Polygon", "coordinates": [ [ [ 4.306, 50.812 ], [ 4.26, 50.811 ], [ 4.244, 50.82 ], [ 4.257, 50.835 ], [ 4.283, 50.838 ], [ 4.288, 50.848 ], [ 4.283, 50.854 ], [ 4.29, 50.856 ], [ 4.279, 50.866 ], [ 4.299, 50.88 ], [ 4.294, 50.889 ], [ 4.341, 50.902 ], [ 4.377, 50.897 ], [ 4.388, 50.91 ], [ 4.403, 50.914 ], [ 4.433, 50.895 ], [ 4.427, 50.89 ], [ 4.437, 50.879 ], [ 4.421, 50.868 ], [ 4.467, 50.845 ], [ 4.466, 50.836 ], [ 4.477, 50.82 ], [ 4.455, 50.818 ], [ 4.448, 50.811 ], [ 4.458, 50.81 ], [ 4.447, 50.808 ], [ 4.482, 50.793 ], [ 4.383, 50.764 ], [ 4.381, 50.769 ], [ 4.331, 50.776 ], [ 4.317, 50.796 ], [ 4.305, 50.799 ], [ 4.306, 50.812 ] ] ] } }
]
}
